{
  "type": "FeatureCollection",
  "name": "agua-subterranea",
  "features": [
    {
      "type": "Feature",
      "properties": {
        "Name": "821392",
        "styleUrl": "#m_ylw-pushpin",
        "source_layer": "Agua Subterraneas 2020",
        "source_document": "REPDA 2020.kml"
      },
      "geometry": {
        "type": "Point",
        "coordinates": [
          -103.508861083,
          20.493244
        ]
      }
    },
    {
      "type": "Feature",
      "properties": {
        "Name": "819802",
        "styleUrl": "#m_ylw-pushpin",
        "source_layer": "Agua Subterraneas 2020",
        "source_document": "REPDA 2020.kml"
      },
      "geometry": {
        "type": "Point",
        "coordinates": [
          -103.508611,
          20.4938890278
        ]
      }
    },
    {
      "type": "Feature",
      "properties": {
        "Name": "08JAL125484/12AMGR03",
        "styleUrl": "#m_ylw-pushpin",
        "source_layer": "Agua Subterraneas 2020",
        "source_document": "REPDA 2020.kml"
      },
      "geometry": {
        "type": "Point",
        "coordinates": [
          -103.503611,
          20.49
        ]
      }
    },
    {
      "type": "Feature",
      "properties": {
        "Name": "08JAL139374/12HMOC14",
        "styleUrl": "#m_ylw-pushpin",
        "source_layer": "Agua Subterraneas 2020",
        "source_document": "REPDA 2020.kml"
      },
      "geometry": {
        "type": "Point",
        "coordinates": [
          -103.502778,
          20.491111
        ]
      }
    },
    {
      "type": "Feature",
      "properties": {
        "Name": "08JAL161567/12EMDA18",
        "styleUrl": "#m_ylw-pushpin",
        "source_layer": "Agua Subterraneas 2020",
        "source_document": "REPDA 2020.kml"
      },
      "geometry": {
        "type": "Point",
        "coordinates": [
          -103.498528,
          20.488833
        ]
      }
    },
    {
      "type": "Feature",
      "properties": {
        "Name": "08JAL110894/12IMGR99",
        "styleUrl": "#m_ylw-pushpin",
        "source_layer": "Agua Subterraneas 2020",
        "source_document": "REPDA 2020.kml"
      },
      "geometry": {
        "type": "Point",
        "coordinates": [
          -103.497222,
          20.491667
        ]
      }
    },
    {
      "type": "Feature",
      "properties": {
        "Name": "08JAL103249/12IMGR99",
        "styleUrl": "#m_ylw-pushpin",
        "source_layer": "Agua Subterraneas 2020",
        "source_document": "REPDA 2020.kml"
      },
      "geometry": {
        "type": "Point",
        "coordinates": [
          -103.495,
          20.492222
        ]
      }
    },
    {
      "type": "Feature",
      "properties": {
        "Name": "08JAL104324/12FMGR02",
        "styleUrl": "#m_ylw-pushpin",
        "source_layer": "Agua Subterraneas 2020",
        "source_document": "REPDA 2020.kml"
      },
      "geometry": {
        "type": "Point",
        "coordinates": [
          -103.491389,
          20.492222
        ]
      }
    },
    {
      "type": "Feature",
      "properties": {
        "Name": "08JAL116740/12ILGR99",
        "styleUrl": "#m_ylw-pushpin",
        "source_layer": "Agua Subterraneas 2020",
        "source_document": "REPDA 2020.kml"
      },
      "geometry": {
        "type": "Point",
        "coordinates": [
          -103.491111,
          20.4925
        ]
      }
    },
    {
      "type": "Feature",
      "properties": {
        "Name": "08JAL123540/12HMGR04",
        "styleUrl": "#m_ylw-pushpin",
        "source_layer": "Agua Subterraneas 2020",
        "source_document": "REPDA 2020.kml"
      },
      "geometry": {
        "type": "Point",
        "coordinates": [
          -103.489167,
          20.497778
        ]
      }
    },
    {
      "type": "Feature",
      "properties": {
        "Name": "08JAL153997/12EMDA16",
        "styleUrl": "#m_ylw-pushpin",
        "source_layer": "Agua Subterraneas 2020",
        "source_document": "REPDA 2020.kml"
      },
      "geometry": {
        "type": "Point",
        "coordinates": [
          -103.488889,
          20.490833
        ]
      }
    },
    {
      "type": "Feature",
      "properties": {
        "Name": "08JAL121116/12AMGR99",
        "styleUrl": "#m_ylw-pushpin",
        "source_layer": "Agua Subterraneas 2020",
        "source_document": "REPDA 2020.kml"
      },
      "geometry": {
        "type": "Point",
        "coordinates": [
          -103.488056,
          20.493333
        ]
      }
    },
    {
      "type": "Feature",
      "properties": {
        "Name": "08JAL160682/12EMDA18",
        "styleUrl": "#m_ylw-pushpin",
        "source_layer": "Agua Subterraneas 2020",
        "source_document": "REPDA 2020.kml"
      },
      "geometry": {
        "type": "Point",
        "coordinates": [
          -103.486667,
          20.492222
        ]
      }
    },
    {
      "type": "Feature",
      "properties": {
        "Name": "08JAL161479/12EMDA18",
        "styleUrl": "#m_ylw-pushpin",
        "source_layer": "Agua Subterraneas 2020",
        "source_document": "REPDA 2020.kml"
      },
      "geometry": {
        "type": "Point",
        "coordinates": [
          -103.485556,
          20.494167
        ]
      }
    },
    {
      "type": "Feature",
      "properties": {
        "Name": "08JAL108727/12IPGR98",
        "styleUrl": "#m_ylw-pushpin",
        "source_layer": "Agua Subterraneas 2020",
        "source_document": "REPDA 2020.kml"
      },
      "geometry": {
        "type": "Point",
        "coordinates": [
          -103.484444,
          20.492222
        ]
      }
    },
    {
      "type": "Feature",
      "properties": {
        "Name": "08JAL115936/12APDA18",
        "styleUrl": "#m_ylw-pushpin",
        "source_layer": "Agua Subterraneas 2020",
        "source_document": "REPDA 2020.kml"
      },
      "geometry": {
        "type": "Point",
        "coordinates": [
          -103.473333,
          20.505
        ]
      }
    },
    {
      "type": "Feature",
      "properties": {
        "Name": "08JAL126924/12AMOC09 (1)",
        "styleUrl": "#msn_ltblu-circle0",
        "source_layer": "Agua Subterraneas 2020",
        "source_document": "REPDA 2020.kml"
      },
      "geometry": {
        "type": "Point",
        "coordinates": [
          -103.477222,
          20.503333
        ]
      }
    },
    {
      "type": "Feature",
      "properties": {
        "Name": "08JAL126924/12AMOC09 (2)",
        "styleUrl": "#msn_ltblu-circle0",
        "source_layer": "Agua Subterraneas 2020",
        "source_document": "REPDA 2020.kml"
      },
      "geometry": {
        "type": "Point",
        "coordinates": [
          -103.481389,
          20.501667
        ]
      }
    },
    {
      "type": "Feature",
      "properties": {
        "Name": "08JAL114019/12EMGR06",
        "styleUrl": "#m_ylw-pushpin",
        "source_layer": "Agua Subterraneas 2020",
        "source_document": "REPDA 2020.kml"
      },
      "geometry": {
        "type": "Point",
        "coordinates": [
          -103.464,
          20.496944
        ]
      }
    },
    {
      "type": "Feature",
      "properties": {
        "Name": "08JAL124317/12AMGR00",
        "styleUrl": "#m_ylw-pushpin",
        "source_layer": "Agua Subterraneas 2020",
        "source_document": "REPDA 2020.kml"
      },
      "geometry": {
        "type": "Point",
        "coordinates": [
          -103.486111,
          20.489722
        ]
      }
    },
    {
      "type": "Feature",
      "properties": {
        "Name": "08JAL108596/12IMGR98",
        "styleUrl": "#m_ylw-pushpin",
        "source_layer": "Agua Subterraneas 2020",
        "source_document": "REPDA 2020.kml"
      },
      "geometry": {
        "type": "Point",
        "coordinates": [
          -103.485833,
          20.489167
        ]
      }
    },
    {
      "type": "Feature",
      "properties": {
        "Name": "08JAL112089/12IMDA18",
        "styleUrl": "#m_ylw-pushpin",
        "source_layer": "Agua Subterraneas 2020",
        "source_document": "REPDA 2020.kml"
      },
      "geometry": {
        "type": "Point",
        "coordinates": [
          -103.483611,
          20.4875
        ]
      }
    },
    {
      "type": "Feature",
      "properties": {
        "Name": "816989",
        "styleUrl": "#m_ylw-pushpin",
        "source_layer": "Agua Subterraneas 2020",
        "source_document": "REPDA 2020.kml"
      },
      "geometry": {
        "type": "Point",
        "coordinates": [
          -103.482883,
          20.487686
        ]
      }
    },
    {
      "type": "Feature",
      "properties": {
        "Name": "08JAL161709/12AMDA18",
        "styleUrl": "#m_ylw-pushpin",
        "source_layer": "Agua Subterraneas 2020",
        "source_document": "REPDA 2020.kml"
      },
      "geometry": {
        "type": "Point",
        "coordinates": [
          -103.494722,
          20.483889
        ]
      }
    },
    {
      "type": "Feature",
      "properties": {
        "Name": "08JAL108649/12AMDA18",
        "styleUrl": "#m_ylw-pushpin",
        "source_layer": "Agua Subterraneas 2020",
        "source_document": "REPDA 2020.kml"
      },
      "geometry": {
        "type": "Point",
        "coordinates": [
          -103.492778,
          20.4825
        ]
      }
    },
    {
      "type": "Feature",
      "properties": {
        "Name": "08JAL162118/12IMDA19",
        "styleUrl": "#m_ylw-pushpin",
        "source_layer": "Agua Subterraneas 2020",
        "source_document": "REPDA 2020.kml"
      },
      "geometry": {
        "type": "Point",
        "coordinates": [
          -103.49,
          20.484167
        ]
      }
    },
    {
      "type": "Feature",
      "properties": {
        "Name": "08JAL111506/12APGR99",
        "styleUrl": "#m_ylw-pushpin",
        "source_layer": "Agua Subterraneas 2020",
        "source_document": "REPDA 2020.kml"
      },
      "geometry": {
        "type": "Point",
        "coordinates": [
          -103.486944,
          20.483333
        ]
      }
    },
    {
      "type": "Feature",
      "properties": {
        "Name": "08JAL111384/12AMGR99",
        "styleUrl": "#msn_ltblu-circle7",
        "source_layer": "Agua Subterraneas 2020",
        "source_document": "REPDA 2020.kml"
      },
      "geometry": {
        "type": "Point",
        "coordinates": [
          -103.517222,
          20.4533333333
        ]
      }
    },
    {
      "type": "Feature",
      "properties": {
        "Name": "08JAL114062/12AMDA18",
        "styleUrl": "#msn_ltblu-circle7",
        "source_layer": "Agua Subterraneas 2020",
        "source_document": "REPDA 2020.kml"
      },
      "geometry": {
        "type": "Point",
        "coordinates": [
          -103.514444,
          20.452778
        ]
      }
    },
    {
      "type": "Feature",
      "properties": {
        "Name": "08JAL110814/12GPGR99 (1)",
        "styleUrl": "#msn_ltblu-circle2",
        "source_layer": "Agua Subterraneas 2020",
        "source_document": "REPDA 2020.kml"
      },
      "geometry": {
        "type": "Point",
        "coordinates": [
          -103.515833,
          20.451667
        ]
      }
    },
    {
      "type": "Feature",
      "properties": {
        "Name": "08JAL106207/12ASOC10 (3)",
        "styleUrl": "#msn_ltblu-circle5",
        "source_layer": "Agua Subterraneas 2020",
        "source_document": "REPDA 2020.kml"
      },
      "geometry": {
        "type": "Point",
        "coordinates": [
          -103.515556,
          20.450833
        ]
      }
    },
    {
      "type": "Feature",
      "properties": {
        "Name": "08JAL110387/12GPGR98 (2)",
        "styleUrl": "#msn_ltblu-circle7",
        "source_layer": "Agua Subterraneas 2020",
        "source_document": "REPDA 2020.kml"
      },
      "geometry": {
        "type": "Point",
        "coordinates": [
          -103.514722,
          20.450278
        ]
      }
    },
    {
      "type": "Feature",
      "properties": {
        "Name": "4JAL100136/12AMGR94",
        "styleUrl": "#msn_ltblu-circle7",
        "source_layer": "Agua Subterraneas 2020",
        "source_document": "REPDA 2020.kml"
      },
      "geometry": {
        "type": "Point",
        "coordinates": [
          -103.511667,
          20.449722
        ]
      }
    },
    {
      "type": "Feature",
      "properties": {
        "Name": "08JAL129655/12AMDA18",
        "styleUrl": "#msn_ltblu-circle7",
        "source_layer": "Agua Subterraneas 2020",
        "source_document": "REPDA 2020.kml"
      },
      "geometry": {
        "type": "Point",
        "coordinates": [
          -103.512222,
          20.445278
        ]
      }
    },
    {
      "type": "Feature",
      "properties": {
        "Name": "08JAL124545/12GPGR00",
        "styleUrl": "#msn_ltblu-circle7",
        "source_layer": "Agua Subterraneas 2020",
        "source_document": "REPDA 2020.kml"
      },
      "geometry": {
        "type": "Point",
        "coordinates": [
          -103.516111,
          20.448333
        ]
      }
    },
    {
      "type": "Feature",
      "properties": {
        "Name": "08JAL161689/12ALDA18",
        "styleUrl": "#msn_ltblu-circle7",
        "source_layer": "Agua Subterraneas 2020",
        "source_document": "REPDA 2020.kml"
      },
      "geometry": {
        "type": "Point",
        "coordinates": [
          -103.516111,
          20.447778
        ]
      }
    },
    {
      "type": "Feature",
      "properties": {
        "Name": "08JAL106207/12ASOC10 (1)",
        "styleUrl": "#msn_ltblu-circle5",
        "source_layer": "Agua Subterraneas 2020",
        "source_document": "REPDA 2020.kml"
      },
      "geometry": {
        "type": "Point",
        "coordinates": [
          -103.515556,
          20.446389
        ]
      }
    },
    {
      "type": "Feature",
      "properties": {
        "Name": "824263",
        "styleUrl": "#msn_ltblu-circle7",
        "source_layer": "Agua Subterraneas 2020",
        "source_document": "REPDA 2020.kml"
      },
      "geometry": {
        "type": "Point",
        "coordinates": [
          -103.518611278,
          20.447223
        ]
      }
    },
    {
      "type": "Feature",
      "properties": {
        "Name": "824277",
        "styleUrl": "#msn_ltblu-circle7",
        "source_layer": "Agua Subterraneas 2020",
        "source_document": "REPDA 2020.kml"
      },
      "geometry": {
        "type": "Point",
        "coordinates": [
          -103.519444444,
          20.447223
        ]
      }
    },
    {
      "type": "Feature",
      "properties": {
        "Name": "08JAL109082/12GPGR98",
        "styleUrl": "#msn_ltblu-circle7",
        "source_layer": "Agua Subterraneas 2020",
        "source_document": "REPDA 2020.kml"
      },
      "geometry": {
        "type": "Point",
        "coordinates": [
          -103.516111111,
          20.442222
        ]
      }
    },
    {
      "type": "Feature",
      "properties": {
        "Name": "08JAL110384/12GPGR98",
        "styleUrl": "#msn_ltblu-circle7",
        "source_layer": "Agua Subterraneas 2020",
        "source_document": "REPDA 2020.kml"
      },
      "geometry": {
        "type": "Point",
        "coordinates": [
          -103.52,
          20.437778
        ]
      }
    },
    {
      "type": "Feature",
      "properties": {
        "Name": "08JAL134425/12AMDA17",
        "styleUrl": "#msn_ltblu-circle7",
        "source_layer": "Agua Subterraneas 2020",
        "source_document": "REPDA 2020.kml"
      },
      "geometry": {
        "type": "Point",
        "coordinates": [
          -103.501527778,
          20.447278
        ]
      }
    },
    {
      "type": "Feature",
      "properties": {
        "Name": "08JAL126045/12APGR03 (2)",
        "styleUrl": "#msn_ltblu-circle3",
        "source_layer": "Agua Subterraneas 2020",
        "source_document": "REPDA 2020.kml"
      },
      "geometry": {
        "type": "Point",
        "coordinates": [
          -103.500278,
          20.445556
        ]
      }
    },
    {
      "type": "Feature",
      "properties": {
        "Name": "08JAL117298/12IPDA18",
        "styleUrl": "#msn_ltblu-circle7",
        "source_layer": "Agua Subterraneas 2020",
        "source_document": "REPDA 2020.kml"
      },
      "geometry": {
        "type": "Point",
        "coordinates": [
          -103.503333333,
          20.4425
        ]
      }
    },
    {
      "type": "Feature",
      "properties": {
        "Name": "08JAL160564/12AMDA18",
        "styleUrl": "#msn_ltblu-circle7",
        "source_layer": "Agua Subterraneas 2020",
        "source_document": "REPDA 2020.kml"
      },
      "geometry": {
        "type": "Point",
        "coordinates": [
          -103.501389,
          20.440833
        ]
      }
    },
    {
      "type": "Feature",
      "properties": {
        "Name": "08JAL112813/12APDA19",
        "styleUrl": "#msn_ltblu-circle7",
        "source_layer": "Agua Subterraneas 2020",
        "source_document": "REPDA 2020.kml"
      },
      "geometry": {
        "type": "Point",
        "coordinates": [
          -103.504166667,
          20.439444
        ]
      }
    },
    {
      "type": "Feature",
      "properties": {
        "Name": "08JAL112218/12AMGR99 (1)",
        "styleUrl": "#msn_ltblu-circle7",
        "source_layer": "Agua Subterraneas 2020",
        "source_document": "REPDA 2020.kml"
      },
      "geometry": {
        "type": "Point",
        "coordinates": [
          -103.503611,
          20.437778
        ]
      }
    },
    {
      "type": "Feature",
      "properties": {
        "Name": "08JAL112218/12AMGR99 (2)",
        "styleUrl": "#msn_ltblu-circle7",
        "source_layer": "Agua Subterraneas 2020",
        "source_document": "REPDA 2020.kml"
      },
      "geometry": {
        "type": "Point",
        "coordinates": [
          -103.501944444,
          20.438333
        ]
      }
    },
    {
      "type": "Feature",
      "properties": {
        "Name": "08JAL125834/12GMGR02",
        "styleUrl": "#msn_ltblu-circle7",
        "source_layer": "Agua Subterraneas 2020",
        "source_document": "REPDA 2020.kml"
      },
      "geometry": {
        "type": "Point",
        "coordinates": [
          -103.499722,
          20.434444
        ]
      }
    },
    {
      "type": "Feature",
      "properties": {
        "Name": "08JAL126690/12AMGR03",
        "styleUrl": "#msn_ltblu-circle7",
        "source_layer": "Agua Subterraneas 2020",
        "source_document": "REPDA 2020.kml"
      },
      "geometry": {
        "type": "Point",
        "coordinates": [
          -103.499444,
          20.434167
        ]
      }
    },
    {
      "type": "Feature",
      "properties": {
        "Name": "08JAL112641/12IPGR99",
        "styleUrl": "#msn_ltblu-circle7",
        "source_layer": "Agua Subterraneas 2020",
        "source_document": "REPDA 2020.kml"
      },
      "geometry": {
        "type": "Point",
        "coordinates": [
          -103.505833333,
          20.431667
        ]
      }
    },
    {
      "type": "Feature",
      "properties": {
        "Name": "08JAL156187/12AMDA16",
        "styleUrl": "#msn_ltblu-circle7",
        "source_layer": "Agua Subterraneas 2020",
        "source_document": "REPDA 2020.kml"
      },
      "geometry": {
        "type": "Point",
        "coordinates": [
          -103.507777778,
          20.428611
        ]
      }
    },
    {
      "type": "Feature",
      "properties": {
        "Name": "08JAL122893/12APGR99",
        "styleUrl": "#msn_ltblu-circle7",
        "source_layer": "Agua Subterraneas 2020",
        "source_document": "REPDA 2020.kml"
      },
      "geometry": {
        "type": "Point",
        "coordinates": [
          -103.508611,
          20.428333
        ]
      }
    },
    {
      "type": "Feature",
      "properties": {
        "Name": "08JAL162083/12APDA19",
        "styleUrl": "#msn_ltblu-circle7",
        "source_layer": "Agua Subterraneas 2020",
        "source_document": "REPDA 2020.kml"
      },
      "geometry": {
        "type": "Point",
        "coordinates": [
          -103.5,
          20.429167
        ]
      }
    },
    {
      "type": "Feature",
      "properties": {
        "Name": "826163",
        "styleUrl": "#msn_ltblu-circle7",
        "source_layer": "Agua Subterraneas 2020",
        "source_document": "REPDA 2020.kml"
      },
      "geometry": {
        "type": "Point",
        "coordinates": [
          -103.502222,
          20.42667
        ]
      }
    },
    {
      "type": "Feature",
      "properties": {
        "Name": "08JAL156901/12EMDA17",
        "styleUrl": "#msn_ltblu-circle7",
        "source_layer": "Agua Subterraneas 2020",
        "source_document": "REPDA 2020.kml"
      },
      "geometry": {
        "type": "Point",
        "coordinates": [
          -103.523888889,
          20.437222
        ]
      }
    },
    {
      "type": "Feature",
      "properties": {
        "Name": "JAL130818",
        "styleUrl": "#msn_ltblu-circle7",
        "source_layer": "Agua Subterraneas 2020",
        "source_document": "REPDA 2020.kml"
      },
      "geometry": {
        "type": "Point",
        "coordinates": [
          -103.528611278,
          20.43639
        ]
      }
    },
    {
      "type": "Feature",
      "properties": {
        "Name": "08JAL160998/12AMDA18",
        "styleUrl": "#m_ylw-pushpin",
        "source_layer": "Agua Subterraneas 2020",
        "source_document": "REPDA 2020.kml"
      },
      "geometry": {
        "type": "Point",
        "coordinates": [
          -103.486667,
          20.4825
        ]
      }
    },
    {
      "type": "Feature",
      "properties": {
        "Name": "08JAL116903/12APGR99 (1)",
        "styleUrl": "#msn_ltblu-circle1",
        "source_layer": "Agua Subterraneas 2020",
        "source_document": "REPDA 2020.kml"
      },
      "geometry": {
        "type": "Point",
        "coordinates": [
          -103.496667,
          20.480556
        ]
      }
    },
    {
      "type": "Feature",
      "properties": {
        "Name": "08JAL116746/12CPGR99",
        "styleUrl": "#m_ylw-pushpin",
        "source_layer": "Agua Subterraneas 2020",
        "source_document": "REPDA 2020.kml"
      },
      "geometry": {
        "type": "Point",
        "coordinates": [
          -103.496389,
          20.480556
        ]
      }
    },
    {
      "type": "Feature",
      "properties": {
        "Name": "08JAL116903/12APGR99 (2)",
        "styleUrl": "#m_ylw-pushpin",
        "source_layer": "Agua Subterraneas 2020",
        "source_document": "REPDA 2020.kml"
      },
      "geometry": {
        "type": "Point",
        "coordinates": [
          -103.495556,
          20.48
        ]
      }
    },
    {
      "type": "Feature",
      "properties": {
        "Name": "08JAL136046/12AMDA18",
        "styleUrl": "#m_ylw-pushpin",
        "source_layer": "Agua Subterraneas 2020",
        "source_document": "REPDA 2020.kml"
      },
      "geometry": {
        "type": "Point",
        "coordinates": [
          -103.495278,
          20.477778
        ]
      }
    },
    {
      "type": "Feature",
      "properties": {
        "Name": "08JAL111146/12AMDA18",
        "styleUrl": "#m_ylw-pushpin",
        "source_layer": "Agua Subterraneas 2020",
        "source_document": "REPDA 2020.kml"
      },
      "geometry": {
        "type": "Point",
        "coordinates": [
          -103.497777778,
          20.476389
        ]
      }
    },
    {
      "type": "Feature",
      "properties": {
        "Name": "08JAL105626/12EMDA16",
        "styleUrl": "#m_ylw-pushpin",
        "source_layer": "Agua Subterraneas 2020",
        "source_document": "REPDA 2020.kml"
      },
      "geometry": {
        "type": "Point",
        "coordinates": [
          -103.496389,
          20.474167
        ]
      }
    },
    {
      "type": "Feature",
      "properties": {
        "Name": "08JAL162071/12AMDA19",
        "styleUrl": "#m_ylw-pushpin",
        "source_layer": "Agua Subterraneas 2020",
        "source_document": "REPDA 2020.kml"
      },
      "geometry": {
        "type": "Point",
        "coordinates": [
          -103.490833,
          20.477778
        ]
      }
    },
    {
      "type": "Feature",
      "properties": {
        "Name": "08JAL134102",
        "styleUrl": "#m_ylw-pushpin",
        "source_layer": "Agua Subterraneas 2020",
        "source_document": "REPDA 2020.kml"
      },
      "geometry": {
        "type": "Point",
        "coordinates": [
          -103.491361,
          20.476944
        ]
      }
    },
    {
      "type": "Feature",
      "properties": {
        "Name": "08JAL102993/12APGR99",
        "styleUrl": "#m_ylw-pushpin",
        "source_layer": "Agua Subterraneas 2020",
        "source_document": "REPDA 2020.kml"
      },
      "geometry": {
        "type": "Point",
        "coordinates": [
          -103.49,
          20.475556
        ]
      }
    },
    {
      "type": "Feature",
      "properties": {
        "Name": "08JAL127215/12APGR04",
        "styleUrl": "#m_ylw-pushpin",
        "source_layer": "Agua Subterraneas 2020",
        "source_document": "REPDA 2020.kml"
      },
      "geometry": {
        "type": "Point",
        "coordinates": [
          -103.492222,
          20.474444
        ]
      }
    },
    {
      "type": "Feature",
      "properties": {
        "Name": "08JAL125730/12GPGR02",
        "styleUrl": "#m_ylw-pushpin",
        "source_layer": "Agua Subterraneas 2020",
        "source_document": "REPDA 2020.kml"
      },
      "geometry": {
        "type": "Point",
        "coordinates": [
          -103.493056,
          20.473611
        ]
      }
    },
    {
      "type": "Feature",
      "properties": {
        "Name": "08JAL107411",
        "styleUrl": "#m_ylw-pushpin",
        "source_layer": "Agua Subterraneas 2020",
        "source_document": "REPDA 2020.kml"
      },
      "geometry": {
        "type": "Point",
        "coordinates": [
          -103.489722,
          20.471113
        ]
      }
    },
    {
      "type": "Feature",
      "properties": {
        "Name": "08JAL116656/12IPDA17 (2)",
        "styleUrl": "#msn_ltblu-circle4",
        "source_layer": "Agua Subterraneas 2020",
        "source_document": "REPDA 2020.kml"
      },
      "geometry": {
        "type": "Point",
        "coordinates": [
          -103.497778,
          20.471111
        ]
      }
    },
    {
      "type": "Feature",
      "properties": {
        "Name": "08JAL111656/12GPGR99",
        "styleUrl": "#m_ylw-pushpin",
        "source_layer": "Agua Subterraneas 2020",
        "source_document": "REPDA 2020.kml"
      },
      "geometry": {
        "type": "Point",
        "coordinates": [
          -103.501944,
          20.471111
        ]
      }
    },
    {
      "type": "Feature",
      "properties": {
        "Name": "08JAL156913/12EMDA17",
        "styleUrl": "#m_ylw-pushpin",
        "source_layer": "Agua Subterraneas 2020",
        "source_document": "REPDA 2020.kml"
      },
      "geometry": {
        "type": "Point",
        "coordinates": [
          -103.504194,
          20.471083
        ]
      }
    },
    {
      "type": "Feature",
      "properties": {
        "Name": "08JAL105366/12FMDA17",
        "styleUrl": "#m_ylw-pushpin",
        "source_layer": "Agua Subterraneas 2020",
        "source_document": "REPDA 2020.kml"
      },
      "geometry": {
        "type": "Point",
        "coordinates": [
          -103.503056,
          20.469444
        ]
      }
    },
    {
      "type": "Feature",
      "properties": {
        "Name": "08JAL102405/12AMDA18",
        "styleUrl": "#m_ylw-pushpin",
        "source_layer": "Agua Subterraneas 2020",
        "source_document": "REPDA 2020.kml"
      },
      "geometry": {
        "type": "Point",
        "coordinates": [
          -103.499167,
          20.47
        ]
      }
    },
    {
      "type": "Feature",
      "properties": {
        "Name": "08JAL161789/12IPDA18",
        "styleUrl": "#m_ylw-pushpin",
        "source_layer": "Agua Subterraneas 2020",
        "source_document": "REPDA 2020.kml"
      },
      "geometry": {
        "type": "Point",
        "coordinates": [
          -103.499444,
          20.469167
        ]
      }
    },
    {
      "type": "Feature",
      "properties": {
        "Name": "824362",
        "styleUrl": "#m_ylw-pushpin",
        "source_layer": "Agua Subterraneas 2020",
        "source_document": "REPDA 2020.kml"
      },
      "geometry": {
        "type": "Point",
        "coordinates": [
          -103.496389,
          20.469445
        ]
      }
    },
    {
      "type": "Feature",
      "properties": {
        "Name": "08JAL125925/12FMDA17",
        "styleUrl": "#m_ylw-pushpin",
        "source_layer": "Agua Subterraneas 2020",
        "source_document": "REPDA 2020.kml"
      },
      "geometry": {
        "type": "Point",
        "coordinates": [
          -103.499722,
          20.466389
        ]
      }
    },
    {
      "type": "Feature",
      "properties": {
        "Name": "08JAL120171/12ISDA17 (2)",
        "styleUrl": "#msn_ltblu-circle",
        "source_layer": "Agua Subterraneas 2020",
        "source_document": "REPDA 2020.kml"
      },
      "geometry": {
        "type": "Point",
        "coordinates": [
          -103.5,
          20.463889
        ]
      }
    },
    {
      "type": "Feature",
      "properties": {
        "Name": "08JAL120171/12ISDA17 (3)",
        "styleUrl": "#msn_ltblu-circle1",
        "source_layer": "Agua Subterraneas 2020",
        "source_document": "REPDA 2020.kml"
      },
      "geometry": {
        "type": "Point",
        "coordinates": [
          -103.501389,
          20.463056
        ]
      }
    },
    {
      "type": "Feature",
      "properties": {
        "Name": "08JAL120171/12ISDA17 (4)",
        "styleUrl": "#msn_ltblu-circle",
        "source_layer": "Agua Subterraneas 2020",
        "source_document": "REPDA 2020.kml"
      },
      "geometry": {
        "type": "Point",
        "coordinates": [
          -103.499167,
          20.463333
        ]
      }
    },
    {
      "type": "Feature",
      "properties": {
        "Name": "08JAL160971/12EMDA18",
        "styleUrl": "#m_ylw-pushpin",
        "source_layer": "Agua Subterraneas 2020",
        "source_document": "REPDA 2020.kml"
      },
      "geometry": {
        "type": "Point",
        "coordinates": [
          -103.50025,
          20.462722
        ]
      }
    },
    {
      "type": "Feature",
      "properties": {
        "Name": "08JAL129046/12EMGR06",
        "styleUrl": "#m_ylw-pushpin",
        "source_layer": "Agua Subterraneas 2020",
        "source_document": "REPDA 2020.kml"
      },
      "geometry": {
        "type": "Point",
        "coordinates": [
          -103.497778,
          20.463056
        ]
      }
    },
    {
      "type": "Feature",
      "properties": {
        "Name": "08JAL110355/12AMGR98",
        "styleUrl": "#m_ylw-pushpin",
        "source_layer": "Agua Subterraneas 2020",
        "source_document": "REPDA 2020.kml"
      },
      "geometry": {
        "type": "Point",
        "coordinates": [
          -103.505833,
          20.463889
        ]
      }
    },
    {
      "type": "Feature",
      "properties": {
        "Name": "08JAL162191/12AMDA19",
        "styleUrl": "#m_ylw-pushpin",
        "source_layer": "Agua Subterraneas 2020",
        "source_document": "REPDA 2020.kml"
      },
      "geometry": {
        "type": "Point",
        "coordinates": [
          -103.5,
          20.460278
        ]
      }
    },
    {
      "type": "Feature",
      "properties": {
        "Name": "08JAL111888/12AMDA15",
        "styleUrl": "#m_ylw-pushpin",
        "source_layer": "Agua Subterraneas 2020",
        "source_document": "REPDA 2020.kml"
      },
      "geometry": {
        "type": "Point",
        "coordinates": [
          -103.502778,
          20.457778
        ]
      }
    },
    {
      "type": "Feature",
      "properties": {
        "Name": "08JAL110383/12APGR98",
        "styleUrl": "#m_ylw-pushpin",
        "source_layer": "Agua Subterraneas 2020",
        "source_document": "REPDA 2020.kml"
      },
      "geometry": {
        "type": "Point",
        "coordinates": [
          -103.510556,
          20.456944
        ]
      }
    },
    {
      "type": "Feature",
      "properties": {
        "Name": "08JAL162010/12IMDA19",
        "styleUrl": "#m_ylw-pushpin",
        "source_layer": "Agua Subterraneas 2020",
        "source_document": "REPDA 2020.kml"
      },
      "geometry": {
        "type": "Point",
        "coordinates": [
          -103.515556,
          20.455556
        ]
      }
    },
    {
      "type": "Feature",
      "properties": {
        "Name": "08JAL110814/12GPGR99 (2)",
        "styleUrl": "#msn_ltblu-circle6",
        "source_layer": "Agua Subterraneas 2020",
        "source_document": "REPDA 2020.kml"
      },
      "geometry": {
        "type": "Point",
        "coordinates": [
          -103.515833,
          20.454444
        ]
      }
    },
    {
      "type": "Feature",
      "properties": {
        "Name": "08JAL111438/12GPDA16",
        "styleUrl": "#m_ylw-pushpin",
        "source_layer": "Agua Subterraneas 2020",
        "source_document": "REPDA 2020.kml"
      },
      "geometry": {
        "type": "Point",
        "coordinates": [
          -103.515833,
          20.454167
        ]
      }
    },
    {
      "type": "Feature",
      "properties": {
        "Name": "08JAL107141/12GMGR98",
        "styleUrl": "#m_ylw-pushpin",
        "source_layer": "Agua Subterraneas 2020",
        "source_document": "REPDA 2020.kml"
      },
      "geometry": {
        "type": "Point",
        "coordinates": [
          -103.5,
          20.452778
        ]
      }
    },
    {
      "type": "Feature",
      "properties": {
        "Name": "08JAL127122/12ALGR04",
        "styleUrl": "#m_ylw-pushpin",
        "source_layer": "Agua Subterraneas 2020",
        "source_document": "REPDA 2020.kml"
      },
      "geometry": {
        "type": "Point",
        "coordinates": [
          -103.5,
          20.449722
        ]
      }
    },
    {
      "type": "Feature",
      "properties": {
        "Name": "08JAL126045/12APGR03 (1)",
        "styleUrl": "#m_ylw-pushpin",
        "source_layer": "Agua Subterraneas 2020",
        "source_document": "REPDA 2020.kml"
      },
      "geometry": {
        "type": "Point",
        "coordinates": [
          -103.5,
          20.447222
        ]
      }
    },
    {
      "type": "Feature",
      "properties": {
        "Name": "08JAL137219/12AMOC10",
        "styleUrl": "#m_ylw-pushpin",
        "source_layer": "Agua Subterraneas 2020",
        "source_document": "REPDA 2020.kml"
      },
      "geometry": {
        "type": "Point",
        "coordinates": [
          -103.493333,
          20.458333
        ]
      }
    },
    {
      "type": "Feature",
      "properties": {
        "Name": "08JAL116656/12IPDA17 (1)",
        "styleUrl": "#msn_ltblu-circle4",
        "source_layer": "Agua Subterraneas 2020",
        "source_document": "REPDA 2020.kml"
      },
      "geometry": {
        "type": "Point",
        "coordinates": [
          -103.491667,
          20.4625
        ]
      }
    },
    {
      "type": "Feature",
      "properties": {
        "Name": "08JAL110824/12APGR99",
        "styleUrl": "#m_ylw-pushpin",
        "source_layer": "Agua Subterraneas 2020",
        "source_document": "REPDA 2020.kml"
      },
      "geometry": {
        "type": "Point",
        "coordinates": [
          -103.486667,
          20.464167
        ]
      }
    },
    {
      "type": "Feature",
      "properties": {
        "Name": "08JAL156973/12IMDA17",
        "styleUrl": "#m_ylw-pushpin",
        "source_layer": "Agua Subterraneas 2020",
        "source_document": "REPDA 2020.kml"
      },
      "geometry": {
        "type": "Point",
        "coordinates": [
          -103.481944,
          20.468889
        ]
      }
    },
    {
      "type": "Feature",
      "properties": {
        "Name": "JAL132994",
        "styleUrl": "#m_ylw-pushpin",
        "source_layer": "Agua Subterraneas 2020",
        "source_document": "REPDA 2020.kml"
      },
      "geometry": {
        "type": "Point",
        "coordinates": [
          -103.480556,
          20.466114
        ]
      }
    },
    {
      "type": "Feature",
      "properties": {
        "Name": "08JAL131618/12AMDA18",
        "styleUrl": "#m_ylw-pushpin",
        "source_layer": "Agua Subterraneas 2020",
        "source_document": "REPDA 2020.kml"
      },
      "geometry": {
        "type": "Point",
        "coordinates": [
          -103.481389,
          20.463611
        ]
      }
    },
    {
      "type": "Feature",
      "properties": {
        "Name": "08JAL111334/12APGR99",
        "styleUrl": "#m_ylw-pushpin",
        "source_layer": "Agua Subterraneas 2020",
        "source_document": "REPDA 2020.kml"
      },
      "geometry": {
        "type": "Point",
        "coordinates": [
          -103.482778,
          20.449167
        ]
      }
    },
    {
      "type": "Feature",
      "properties": {
        "Name": "08JAL132613/12APOC08",
        "styleUrl": "#m_ylw-pushpin",
        "source_layer": "Agua Subterraneas 2020",
        "source_document": "REPDA 2020.kml"
      },
      "geometry": {
        "type": "Point",
        "coordinates": [
          -103.484167,
          20.448889
        ]
      }
    },
    {
      "type": "Feature",
      "properties": {
        "Name": "08JAL135018/12AMOC09",
        "styleUrl": "#m_ylw-pushpin",
        "source_layer": "Agua Subterraneas 2020",
        "source_document": "REPDA 2020.kml"
      },
      "geometry": {
        "type": "Point",
        "coordinates": [
          -103.481111,
          20.445
        ]
      }
    },
    {
      "type": "Feature",
      "properties": {
        "Name": "08JAL117724/12HMGR99",
        "styleUrl": "#msn_ltblu-circle1",
        "source_layer": "Agua Subterraneas 2020",
        "source_document": "REPDA 2020.kml"
      },
      "geometry": {
        "type": "Point",
        "coordinates": [
          -103.486944444,
          20.428611
        ]
      }
    },
    {
      "type": "Feature",
      "properties": {
        "Name": "4JAL101120/12HMGE94",
        "styleUrl": "#msn_ltblu-circle1",
        "source_layer": "Agua Subterraneas 2020",
        "source_document": "REPDA 2020.kml"
      },
      "geometry": {
        "type": "Point",
        "coordinates": [
          -103.489166667,
          20.427222
        ]
      }
    },
    {
      "type": "Feature",
      "properties": {
        "Name": "08JAL133025/12AMOC12",
        "styleUrl": "#msn_ltblu-circle1",
        "source_layer": "Agua Subterraneas 2020",
        "source_document": "REPDA 2020.kml"
      },
      "geometry": {
        "type": "Point",
        "coordinates": [
          -103.538889,
          20.434444
        ]
      }
    },
    {
      "type": "Feature",
      "properties": {
        "Name": "08JAL119160/12AMDA18",
        "styleUrl": "#msn_ltblu-circle1",
        "source_layer": "Agua Subterraneas 2020",
        "source_document": "REPDA 2020.kml"
      },
      "geometry": {
        "type": "Point",
        "coordinates": [
          -103.541388889,
          20.438333
        ]
      }
    },
    {
      "type": "Feature",
      "properties": {
        "Name": "825251",
        "styleUrl": "#msn_ltblu-circle1",
        "source_layer": "Agua Subterraneas 2020",
        "source_document": "REPDA 2020.kml"
      },
      "geometry": {
        "type": "Point",
        "coordinates": [
          -103.545417,
          20.43721625
        ]
      }
    },
    {
      "type": "Feature",
      "properties": {
        "Name": "08JAL126104/12AMGR03",
        "styleUrl": "#msn_ltblu-circle1",
        "source_layer": "Agua Subterraneas 2020",
        "source_document": "REPDA 2020.kml"
      },
      "geometry": {
        "type": "Point",
        "coordinates": [
          -103.547222222,
          20.440278
        ]
      }
    },
    {
      "type": "Feature",
      "properties": {
        "Name": "08JAL105680/12APDA17",
        "styleUrl": "#msn_ltblu-circle1",
        "source_layer": "Agua Subterraneas 2020",
        "source_document": "REPDA 2020.kml"
      },
      "geometry": {
        "type": "Point",
        "coordinates": [
          -103.508333333,
          20.423611
        ]
      }
    },
    {
      "type": "Feature",
      "properties": {
        "Name": "08JAL124265/12GMDA18",
        "styleUrl": "#msn_ltblu-circle1",
        "source_layer": "Agua Subterraneas 2020",
        "source_document": "REPDA 2020.kml"
      },
      "geometry": {
        "type": "Point",
        "coordinates": [
          -103.528611,
          20.446861
        ]
      }
    },
    {
      "type": "Feature",
      "properties": {
        "Name": "08JAL162045/12GPDA19",
        "styleUrl": "#msn_ltblu-circle1",
        "source_layer": "Agua Subterraneas 2020",
        "source_document": "REPDA 2020.kml"
      },
      "geometry": {
        "type": "Point",
        "coordinates": [
          -103.525277778,
          20.448611
        ]
      }
    },
    {
      "type": "Feature",
      "properties": {
        "Name": "08JAL106207/12ASOC10 (2)",
        "styleUrl": "#msn_ltblu-circle1",
        "source_layer": "Agua Subterraneas 2020",
        "source_document": "REPDA 2020.kml"
      },
      "geometry": {
        "type": "Point",
        "coordinates": [
          -103.523056,
          20.448611
        ]
      }
    },
    {
      "type": "Feature",
      "properties": {
        "Name": "08JAL110386/12APGR98",
        "styleUrl": "#msn_ltblu-circle1",
        "source_layer": "Agua Subterraneas 2020",
        "source_document": "REPDA 2020.kml"
      },
      "geometry": {
        "type": "Point",
        "coordinates": [
          -103.523055556,
          20.451667
        ]
      }
    },
    {
      "type": "Feature",
      "properties": {
        "Name": "08JAL117664",
        "styleUrl": "#msn_ltblu-circle1",
        "source_layer": "Agua Subterraneas 2020",
        "source_document": "REPDA 2020.kml"
      },
      "geometry": {
        "type": "Point",
        "coordinates": [
          -103.520277917,
          20.451111
        ]
      }
    },
    {
      "type": "Feature",
      "properties": {
        "Name": "08JAL111432 (1)",
        "styleUrl": "#msn_ltblu-circle1",
        "source_layer": "Agua Subterraneas 2020",
        "source_document": "REPDA 2020.kml"
      },
      "geometry": {
        "type": "Point",
        "coordinates": [
          -103.519444944,
          20.4522255
        ]
      }
    },
    {
      "type": "Feature",
      "properties": {
        "Name": "08JAL111432 (2)",
        "styleUrl": "#msn_ltblu-circle1",
        "source_layer": "Agua Subterraneas 2020",
        "source_document": "REPDA 2020.kml"
      },
      "geometry": {
        "type": "Point",
        "coordinates": [
          -103.5200005,
          20.45167
        ]
      }
    },
    {
      "type": "Feature",
      "properties": {
        "Name": "08JAL117725/12HMGR99",
        "styleUrl": "#msn_ltblu-circle1",
        "source_layer": "Agua Subterraneas 2020",
        "source_document": "REPDA 2020.kml"
      },
      "geometry": {
        "type": "Point",
        "coordinates": [
          -103.520277778,
          20.453611
        ]
      }
    },
    {
      "type": "Feature",
      "properties": {
        "Name": "08JAL110387/12GPGR98 (1)",
        "styleUrl": "#msn_ltblu-circle1",
        "source_layer": "Agua Subterraneas 2020",
        "source_document": "REPDA 2020.kml"
      },
      "geometry": {
        "type": "Point",
        "coordinates": [
          -103.523055556,
          20.454444
        ]
      }
    },
    {
      "type": "Feature",
      "properties": {
        "Name": "08JAL110820/12GPGR99",
        "styleUrl": "#msn_ltblu-circle1",
        "source_layer": "Agua Subterraneas 2020",
        "source_document": "REPDA 2020.kml"
      },
      "geometry": {
        "type": "Point",
        "coordinates": [
          -103.5275,
          20.453889
        ]
      }
    },
    {
      "type": "Feature",
      "properties": {
        "Name": "08JAL109323/12IPGR99",
        "styleUrl": "#msn_ltblu-circle1",
        "source_layer": "Agua Subterraneas 2020",
        "source_document": "REPDA 2020.kml"
      },
      "geometry": {
        "type": "Point",
        "coordinates": [
          -103.526666667,
          20.454444
        ]
      }
    },
    {
      "type": "Feature",
      "properties": {
        "Name": "08JAL129893/12AMDA17",
        "styleUrl": "#msn_ltblu-circle1",
        "source_layer": "Agua Subterraneas 2020",
        "source_document": "REPDA 2020.kml"
      },
      "geometry": {
        "type": "Point",
        "coordinates": [
          -103.530556,
          20.456111
        ]
      }
    },
    {
      "type": "Feature",
      "properties": {
        "Name": "08JAL110821/12GPGR99",
        "styleUrl": "#msn_ltblu-circle1",
        "source_layer": "Agua Subterraneas 2020",
        "source_document": "REPDA 2020.kml"
      },
      "geometry": {
        "type": "Point",
        "coordinates": [
          -103.5225,
          20.456389
        ]
      }
    },
    {
      "type": "Feature",
      "properties": {
        "Name": "08JAL124266/12GPGR00",
        "styleUrl": "#msn_ltblu-circle1",
        "source_layer": "Agua Subterraneas 2020",
        "source_document": "REPDA 2020.kml"
      },
      "geometry": {
        "type": "Point",
        "coordinates": [
          -103.525,
          20.457222
        ]
      }
    },
    {
      "type": "Feature",
      "properties": {
        "Name": "08JAL110828/12GPGR99",
        "styleUrl": "#msn_ltblu-circle1",
        "source_layer": "Agua Subterraneas 2020",
        "source_document": "REPDA 2020.kml"
      },
      "geometry": {
        "type": "Point",
        "coordinates": [
          -103.523333333,
          20.458056
        ]
      }
    },
    {
      "type": "Feature",
      "properties": {
        "Name": "08JAL121142/12AMGR99",
        "styleUrl": "#msn_ltblu-circle1",
        "source_layer": "Agua Subterraneas 2020",
        "source_document": "REPDA 2020.kml"
      },
      "geometry": {
        "type": "Point",
        "coordinates": [
          -103.526111,
          20.459722
        ]
      }
    },
    {
      "type": "Feature",
      "properties": {
        "Name": "08JAL100104/12AMOC11",
        "styleUrl": "#msn_ltblu-circle4",
        "source_layer": "Agua Subterraneas 2020",
        "source_document": "REPDA 2020.kml"
      },
      "geometry": {
        "type": "Point",
        "coordinates": [
          -103.515556,
          20.461944
        ]
      }
    },
    {
      "type": "Feature",
      "properties": {
        "Name": "08JAL136614/12AMDA18",
        "styleUrl": "#msn_ltblu-circle4",
        "source_layer": "Agua Subterraneas 2020",
        "source_document": "REPDA 2020.kml"
      },
      "geometry": {
        "type": "Point",
        "coordinates": [
          -103.513055556,
          20.4625
        ]
      }
    },
    {
      "type": "Feature",
      "properties": {
        "Name": "JAL124795",
        "styleUrl": "#msn_ltblu-circle4",
        "source_layer": "Agua Subterraneas 2020",
        "source_document": "REPDA 2020.kml"
      },
      "geometry": {
        "type": "Point",
        "coordinates": [
          -103.515833833,
          20.464167
        ]
      }
    },
    {
      "type": "Feature",
      "properties": {
        "Name": "08JAL120548/12IPGR99",
        "styleUrl": "#msn_ltblu-circle4",
        "source_layer": "Agua Subterraneas 2020",
        "source_document": "REPDA 2020.kml"
      },
      "geometry": {
        "type": "Point",
        "coordinates": [
          -103.520833333,
          20.466667
        ]
      }
    },
    {
      "type": "Feature",
      "properties": {
        "Name": "08JAL116795/12AMGR99",
        "styleUrl": "#msn_ltblu-circle4",
        "source_layer": "Agua Subterraneas 2020",
        "source_document": "REPDA 2020.kml"
      },
      "geometry": {
        "type": "Point",
        "coordinates": [
          -103.53,
          20.4675
        ]
      }
    },
    {
      "type": "Feature",
      "properties": {
        "Name": "08JAL110802/12AMGR99",
        "styleUrl": "#msn_ltblu-circle4",
        "source_layer": "Agua Subterraneas 2020",
        "source_document": "REPDA 2020.kml"
      },
      "geometry": {
        "type": "Point",
        "coordinates": [
          -103.530833333,
          20.466111
        ]
      }
    },
    {
      "type": "Feature",
      "properties": {
        "Name": "08JAL110385/12APGR98",
        "styleUrl": "#msn_ltblu-circle4",
        "source_layer": "Agua Subterraneas 2020",
        "source_document": "REPDA 2020.kml"
      },
      "geometry": {
        "type": "Point",
        "coordinates": [
          -103.530277778,
          20.464722
        ]
      }
    },
    {
      "type": "Feature",
      "properties": {
        "Name": "08JAL118839/12GPGR99",
        "styleUrl": "#msn_ltblu-circle4",
        "source_layer": "Agua Subterraneas 2020",
        "source_document": "REPDA 2020.kml"
      },
      "geometry": {
        "type": "Point",
        "coordinates": [
          -103.534722,
          20.463611
        ]
      }
    },
    {
      "type": "Feature",
      "properties": {
        "Name": "08JAL110834/12GPGR99",
        "styleUrl": "#msn_ltblu-circle4",
        "source_layer": "Agua Subterraneas 2020",
        "source_document": "REPDA 2020.kml"
      },
      "geometry": {
        "type": "Point",
        "coordinates": [
          -103.534722222,
          20.462778
        ]
      }
    },
    {
      "type": "Feature",
      "properties": {
        "Name": "08JAL128778/12AMDA16",
        "styleUrl": "#msn_ltblu-circle4",
        "source_layer": "Agua Subterraneas 2020",
        "source_document": "REPDA 2020.kml"
      },
      "geometry": {
        "type": "Point",
        "coordinates": [
          -103.508055556,
          20.468889
        ]
      }
    },
    {
      "type": "Feature",
      "properties": {
        "Name": "08JAL160772/12APDA18",
        "styleUrl": "#msn_ltblu-circle4",
        "source_layer": "Agua Subterraneas 2020",
        "source_document": "REPDA 2020.kml"
      },
      "geometry": {
        "type": "Point",
        "coordinates": [
          -103.511111111,
          20.471667
        ]
      }
    },
    {
      "type": "Feature",
      "properties": {
        "Name": "08JAL105867/12AMDA18",
        "styleUrl": "#msn_ltblu-circle4",
        "source_layer": "Agua Subterraneas 2020",
        "source_document": "REPDA 2020.kml"
      },
      "geometry": {
        "type": "Point",
        "coordinates": [
          -103.507778,
          20.472222
        ]
      }
    },
    {
      "type": "Feature",
      "properties": {
        "Name": "08JAL116862/12IPGR99",
        "styleUrl": "#msn_ltblu-circle4",
        "source_layer": "Agua Subterraneas 2020",
        "source_document": "REPDA 2020.kml"
      },
      "geometry": {
        "type": "Point",
        "coordinates": [
          -103.509722,
          20.473889
        ]
      }
    },
    {
      "type": "Feature",
      "properties": {
        "Name": "830550",
        "styleUrl": "#msn_ltblu-circle4",
        "source_layer": "Agua Subterraneas 2020",
        "source_document": "REPDA 2020.kml"
      },
      "geometry": {
        "type": "Point",
        "coordinates": [
          -103.509445,
          20.475279
        ]
      }
    },
    {
      "type": "Feature",
      "properties": {
        "Name": "811597",
        "styleUrl": "#msn_ltblu-circle4",
        "source_layer": "Agua Subterraneas 2020",
        "source_document": "REPDA 2020.kml"
      },
      "geometry": {
        "type": "Point",
        "coordinates": [
          -103.505083694,
          20.47436
        ]
      }
    },
    {
      "type": "Feature",
      "properties": {
        "Name": "08JAL116260/12IPGR99",
        "styleUrl": "#msn_ltblu-circle4",
        "source_layer": "Agua Subterraneas 2020",
        "source_document": "REPDA 2020.kml"
      },
      "geometry": {
        "type": "Point",
        "coordinates": [
          -103.511667,
          20.476667
        ]
      }
    },
    {
      "type": "Feature",
      "properties": {
        "Name": "08JAL111105/12IMGR99",
        "styleUrl": "#msn_ltblu-circle4",
        "source_layer": "Agua Subterraneas 2020",
        "source_document": "REPDA 2020.kml"
      },
      "geometry": {
        "type": "Point",
        "coordinates": [
          -103.512777778,
          20.476944
        ]
      }
    },
    {
      "type": "Feature",
      "properties": {
        "Name": "08JAL121039/12IPGR99",
        "styleUrl": "#msn_ltblu-circle4",
        "source_layer": "Agua Subterraneas 2020",
        "source_document": "REPDA 2020.kml"
      },
      "geometry": {
        "type": "Point",
        "coordinates": [
          -103.514444444,
          20.475833
        ]
      }
    },
    {
      "type": "Feature",
      "properties": {
        "Name": "08JAL107002/12ALGR98",
        "styleUrl": "#msn_ltblu-circle4",
        "source_layer": "Agua Subterraneas 2020",
        "source_document": "REPDA 2020.kml"
      },
      "geometry": {
        "type": "Point",
        "coordinates": [
          -103.515278,
          20.475278
        ]
      }
    },
    {
      "type": "Feature",
      "properties": {
        "Name": "830545",
        "styleUrl": "#msn_ltblu-circle4",
        "source_layer": "Agua Subterraneas 2020",
        "source_document": "REPDA 2020.kml"
      },
      "geometry": {
        "type": "Point",
        "coordinates": [
          -103.516111611,
          20.47639
        ]
      }
    },
    {
      "type": "Feature",
      "properties": {
        "Name": "08JAL126364/12FPOC12",
        "styleUrl": "#msn_ltblu-circle4",
        "source_layer": "Agua Subterraneas 2020",
        "source_document": "REPDA 2020.kml"
      },
      "geometry": {
        "type": "Point",
        "coordinates": [
          -103.5175,
          20.477778
        ]
      }
    },
    {
      "type": "Feature",
      "properties": {
        "Name": "08JAL112447/12GPGR99",
        "styleUrl": "#msn_ltblu-circle4",
        "source_layer": "Agua Subterraneas 2020",
        "source_document": "REPDA 2020.kml"
      },
      "geometry": {
        "type": "Point",
        "coordinates": [
          -103.52,
          20.479444
        ]
      }
    },
    {
      "type": "Feature",
      "properties": {
        "Name": "08JAL122578/12GPGR99",
        "styleUrl": "#msn_ltblu-circle4",
        "source_layer": "Agua Subterraneas 2020",
        "source_document": "REPDA 2020.kml"
      },
      "geometry": {
        "type": "Point",
        "coordinates": [
          -103.526389,
          20.477778
        ]
      }
    },
    {
      "type": "Feature",
      "properties": {
        "Name": "08JAL125945/12AMGR03",
        "styleUrl": "#msn_ltblu-circle4",
        "source_layer": "Agua Subterraneas 2020",
        "source_document": "REPDA 2020.kml"
      },
      "geometry": {
        "type": "Point",
        "coordinates": [
          -103.5,
          20.477778
        ]
      }
    },
    {
      "type": "Feature",
      "properties": {
        "Name": "08JAL135934/12APOC09",
        "styleUrl": "#msn_ltblu-circle4",
        "source_layer": "Agua Subterraneas 2020",
        "source_document": "REPDA 2020.kml"
      },
      "geometry": {
        "type": "Point",
        "coordinates": [
          -103.500555556,
          20.479722
        ]
      }
    },
    {
      "type": "Feature",
      "properties": {
        "Name": "08JAL117729/12HLGR99 (1)",
        "styleUrl": "#msn_ltblu-circle4",
        "source_layer": "Agua Subterraneas 2020",
        "source_document": "REPDA 2020.kml"
      },
      "geometry": {
        "type": "Point",
        "coordinates": [
          -103.503888889,
          20.480278
        ]
      }
    },
    {
      "type": "Feature",
      "properties": {
        "Name": "08JAL133613/12AMOC09",
        "styleUrl": "#msn_ltblu-circle4",
        "source_layer": "Agua Subterraneas 2020",
        "source_document": "REPDA 2020.kml"
      },
      "geometry": {
        "type": "Point",
        "coordinates": [
          -103.505,
          20.478889
        ]
      }
    },
    {
      "type": "Feature",
      "properties": {
        "Name": "08JAL117729/12HLGR99 (2)",
        "styleUrl": "#msn_ltblu-circle4",
        "source_layer": "Agua Subterraneas 2020",
        "source_document": "REPDA 2020.kml"
      },
      "geometry": {
        "type": "Point",
        "coordinates": [
          -103.499444444,
          20.481389
        ]
      }
    },
    {
      "type": "Feature",
      "properties": {
        "Name": "08JAL133876/12FPDA16",
        "styleUrl": "#msn_ltblu-circle4",
        "source_layer": "Agua Subterraneas 2020",
        "source_document": "REPDA 2020.kml"
      },
      "geometry": {
        "type": "Point",
        "coordinates": [
          -103.497777778,
          20.481667
        ]
      }
    },
    {
      "type": "Feature",
      "properties": {
        "Name": "08JAL122926/12IMGR99",
        "styleUrl": "#msn_ltblu-circle4",
        "source_layer": "Agua Subterraneas 2020",
        "source_document": "REPDA 2020.kml"
      },
      "geometry": {
        "type": "Point",
        "coordinates": [
          -103.497222222,
          20.481944
        ]
      }
    },
    {
      "type": "Feature",
      "properties": {
        "Name": "08JAL117729/12HLGR99 (3)",
        "styleUrl": "#msn_ltblu-circle4",
        "source_layer": "Agua Subterraneas 2020",
        "source_document": "REPDA 2020.kml"
      },
      "geometry": {
        "type": "Point",
        "coordinates": [
          -103.494722222,
          20.485278
        ]
      }
    },
    {
      "type": "Feature",
      "properties": {
        "Name": "08JAL132253/12FMOC08",
        "styleUrl": "#msn_ltblu-circle4",
        "source_layer": "Agua Subterraneas 2020",
        "source_document": "REPDA 2020.kml"
      },
      "geometry": {
        "type": "Point",
        "coordinates": [
          -103.494444,
          20.486111
        ]
      }
    },
    {
      "type": "Feature",
      "properties": {
        "Name": "08JAL104885/12FMGR04",
        "styleUrl": "#msn_ltblu-circle4",
        "source_layer": "Agua Subterraneas 2020",
        "source_document": "REPDA 2020.kml"
      },
      "geometry": {
        "type": "Point",
        "coordinates": [
          -103.4925,
          20.488889
        ]
      }
    },
    {
      "type": "Feature",
      "properties": {
        "Name": "08JAL120797/12IPGR99",
        "styleUrl": "#msn_ltblu-circle4",
        "source_layer": "Agua Subterraneas 2020",
        "source_document": "REPDA 2020.kml"
      },
      "geometry": {
        "type": "Point",
        "coordinates": [
          -103.512222222,
          20.482222
        ]
      }
    },
    {
      "type": "Feature",
      "properties": {
        "Name": "08JAL120171/12ISDA17 (1)",
        "styleUrl": "#msn_ltblu-circle4",
        "source_layer": "Agua Subterraneas 2020",
        "source_document": "REPDA 2020.kml"
      },
      "geometry": {
        "type": "Point",
        "coordinates": [
          -103.512222222,
          20.484167
        ]
      }
    },
    {
      "type": "Feature",
      "properties": {
        "Name": "815504",
        "styleUrl": "#msn_ltblu-circle4",
        "source_layer": "Agua Subterraneas 2020",
        "source_document": "REPDA 2020.kml"
      },
      "geometry": {
        "type": "Point",
        "coordinates": [
          -103.516722556,
          20.482389
        ]
      }
    },
    {
      "type": "Feature",
      "properties": {
        "Name": "08JAL105426/12APGR99",
        "styleUrl": "#msn_ltblu-circle4",
        "source_layer": "Agua Subterraneas 2020",
        "source_document": "REPDA 2020.kml"
      },
      "geometry": {
        "type": "Point",
        "coordinates": [
          -103.535555556,
          20.478889
        ]
      }
    },
    {
      "type": "Feature",
      "properties": {
        "Name": "810982",
        "styleUrl": "#msn_ltblu-circle4",
        "source_layer": "Agua Subterraneas 2020",
        "source_document": "REPDA 2020.kml"
      },
      "geometry": {
        "type": "Point",
        "coordinates": [
          -103.540000139,
          20.48139
        ]
      }
    },
    {
      "type": "Feature",
      "properties": {
        "Name": "08JAL113848/12GPGR99",
        "styleUrl": "#msn_ltblu-circle4",
        "source_layer": "Agua Subterraneas 2020",
        "source_document": "REPDA 2020.kml"
      },
      "geometry": {
        "type": "Point",
        "coordinates": [
          -103.5425,
          20.479444
        ]
      }
    },
    {
      "type": "Feature",
      "properties": {
        "Name": "08JAL155582/12AMDA16",
        "styleUrl": "#msn_ltblu-circle4",
        "source_layer": "Agua Subterraneas 2020",
        "source_document": "REPDA 2020.kml"
      },
      "geometry": {
        "type": "Point",
        "coordinates": [
          -103.5425,
          20.478056
        ]
      }
    },
    {
      "type": "Feature",
      "properties": {
        "Name": "08JAL161999/12EMDA19",
        "styleUrl": "#msn_ltblu-circle4",
        "source_layer": "Agua Subterraneas 2020",
        "source_document": "REPDA 2020.kml"
      },
      "geometry": {
        "type": "Point",
        "coordinates": [
          -103.545555556,
          20.478333
        ]
      }
    },
    {
      "type": "Feature",
      "properties": {
        "Name": "08JAL106336/12APGR97",
        "styleUrl": "#msn_ltblu-circle4",
        "source_layer": "Agua Subterraneas 2020",
        "source_document": "REPDA 2020.kml"
      },
      "geometry": {
        "type": "Point",
        "coordinates": [
          -103.546666667,
          20.481111
        ]
      }
    },
    {
      "type": "Feature",
      "properties": {
        "Name": "08JAL103214/12ALGR99",
        "styleUrl": "#msn_ltblu-circle4",
        "source_layer": "Agua Subterraneas 2020",
        "source_document": "REPDA 2020.kml"
      },
      "geometry": {
        "type": "Point",
        "coordinates": [
          -103.55,
          20.476389
        ]
      }
    },
    {
      "type": "Feature",
      "properties": {
        "Name": "08JAL108548/12GPGR98",
        "styleUrl": "#msn_ltblu-circle4",
        "source_layer": "Agua Subterraneas 2020",
        "source_document": "REPDA 2020.kml"
      },
      "geometry": {
        "type": "Point",
        "coordinates": [
          -103.550555556,
          20.473333
        ]
      }
    },
    {
      "type": "Feature",
      "properties": {
        "Name": "08JAL110365/12GMGR98",
        "styleUrl": "#msn_ltblu-circle4",
        "source_layer": "Agua Subterraneas 2020",
        "source_document": "REPDA 2020.kml"
      },
      "geometry": {
        "type": "Point",
        "coordinates": [
          -103.555556,
          20.474167
        ]
      }
    },
    {
      "type": "Feature",
      "properties": {
        "Name": "08JAL123601/12IMGR00",
        "styleUrl": "#msn_ltblu-circle4",
        "source_layer": "Agua Subterraneas 2020",
        "source_document": "REPDA 2020.kml"
      },
      "geometry": {
        "type": "Point",
        "coordinates": [
          -103.556944444,
          20.4725
        ]
      }
    },
    {
      "type": "Feature",
      "properties": {
        "Name": "08JAL160526/12IPDA18",
        "styleUrl": "#msn_ltblu-circle4",
        "source_layer": "Agua Subterraneas 2020",
        "source_document": "REPDA 2020.kml"
      },
      "geometry": {
        "type": "Point",
        "coordinates": [
          -103.555,
          20.476667
        ]
      }
    },
    {
      "type": "Feature",
      "properties": {
        "Name": "08JAL112293/14IMDA17",
        "styleUrl": "#msn_ltblu-circle4",
        "source_layer": "Agua Subterraneas 2020",
        "source_document": "REPDA 2020.kml"
      },
      "geometry": {
        "type": "Point",
        "coordinates": [
          -103.551722222,
          20.480556
        ]
      }
    },
    {
      "type": "Feature",
      "properties": {
        "Name": "08JAL126063/12APGR02",
        "styleUrl": "#msn_ltblu-circle4",
        "source_layer": "Agua Subterraneas 2020",
        "source_document": "REPDA 2020.kml"
      },
      "geometry": {
        "type": "Point",
        "coordinates": [
          -103.551111111,
          20.481667
        ]
      }
    },
    {
      "type": "Feature",
      "properties": {
        "Name": "08JAL136094/12APDA18",
        "styleUrl": "#msn_ltblu-circle4",
        "source_layer": "Agua Subterraneas 2020",
        "source_document": "REPDA 2020.kml"
      },
      "geometry": {
        "type": "Point",
        "coordinates": [
          -103.544722,
          20.466944
        ]
      }
    },
    {
      "type": "Feature",
      "properties": {
        "Name": "JAL136096",
        "styleUrl": "#msn_ltblu-circle4",
        "source_layer": "Agua Subterraneas 2020",
        "source_document": "REPDA 2020.kml"
      },
      "geometry": {
        "type": "Point",
        "coordinates": [
          -103.548611,
          20.469444
        ]
      }
    },
    {
      "type": "Feature",
      "properties": {
        "Name": "08JAL103377/12AMDA17",
        "styleUrl": "#msn_ltblu-circle4",
        "source_layer": "Agua Subterraneas 2020",
        "source_document": "REPDA 2020.kml"
      },
      "geometry": {
        "type": "Point",
        "coordinates": [
          -103.551417,
          20.470556
        ]
      }
    },
    {
      "type": "Feature",
      "properties": {
        "Name": "08JAL117733/12HMGR99",
        "styleUrl": "#msn_ltblu-circle4",
        "source_layer": "Agua Subterraneas 2020",
        "source_document": "REPDA 2020.kml"
      },
      "geometry": {
        "type": "Point",
        "coordinates": [
          -103.560556,
          20.47
        ]
      }
    },
    {
      "type": "Feature",
      "properties": {
        "Name": "08JAL135935/12GMOC09",
        "styleUrl": "#msn_ltblu-circle4",
        "source_layer": "Agua Subterraneas 2020",
        "source_document": "REPDA 2020.kml"
      },
      "geometry": {
        "type": "Point",
        "coordinates": [
          -103.560277778,
          20.474722
        ]
      }
    },
    {
      "type": "Feature",
      "properties": {
        "Name": "08JAL107990/14AMDA17",
        "styleUrl": "#msn_ltblu-circle4",
        "source_layer": "Agua Subterraneas 2020",
        "source_document": "REPDA 2020.kml"
      },
      "geometry": {
        "type": "Point",
        "coordinates": [
          -103.559416667,
          20.478083
        ]
      }
    },
    {
      "type": "Feature",
      "properties": {
        "Name": "08JAL116850/12IPGR99",
        "styleUrl": "#msn_ltblu-circle4",
        "source_layer": "Agua Subterraneas 2020",
        "source_document": "REPDA 2020.kml"
      },
      "geometry": {
        "type": "Point",
        "coordinates": [
          -103.563889,
          20.479722
        ]
      }
    },
    {
      "type": "Feature",
      "properties": {
        "Name": "08JAL131384/12APDA17",
        "styleUrl": "#msn_ltblu-circle4",
        "source_layer": "Agua Subterraneas 2020",
        "source_document": "REPDA 2020.kml"
      },
      "geometry": {
        "type": "Point",
        "coordinates": [
          -103.566944444,
          20.482778
        ]
      }
    },
    {
      "type": "Feature",
      "properties": {
        "Name": "810661",
        "styleUrl": "#msn_ltblu-circle4",
        "source_layer": "Agua Subterraneas 2020",
        "source_document": "REPDA 2020.kml"
      },
      "geometry": {
        "type": "Point",
        "coordinates": [
          -103.563788639,
          20.483894
        ]
      }
    },
    {
      "type": "Feature",
      "properties": {
        "Name": "08JAL128175/12AMDA16",
        "styleUrl": "#msn_ltblu-circle4",
        "source_layer": "Agua Subterraneas 2020",
        "source_document": "REPDA 2020.kml"
      },
      "geometry": {
        "type": "Point",
        "coordinates": [
          -103.56425,
          20.486472
        ]
      }
    },
    {
      "type": "Feature",
      "properties": {
        "Name": "08JAL156186",
        "styleUrl": "#msn_ltblu-circle4",
        "source_layer": "Agua Subterraneas 2020",
        "source_document": "REPDA 2020.kml"
      },
      "geometry": {
        "type": "Point",
        "coordinates": [
          -103.562783,
          20.488337
        ]
      }
    },
    {
      "type": "Feature",
      "properties": {
        "Name": "08JAL106996/12AMGR98",
        "styleUrl": "#msn_ltblu-circle4",
        "source_layer": "Agua Subterraneas 2020",
        "source_document": "REPDA 2020.kml"
      },
      "geometry": {
        "type": "Point",
        "coordinates": [
          -103.558888889,
          20.486389
        ]
      }
    },
    {
      "type": "Feature",
      "properties": {
        "Name": "08JAL106810",
        "styleUrl": "#msn_ltblu-circle4",
        "source_layer": "Agua Subterraneas 2020",
        "source_document": "REPDA 2020.kml"
      },
      "geometry": {
        "type": "Point",
        "coordinates": [
          -103.5575,
          20.488337
        ]
      }
    },
    {
      "type": "Feature",
      "properties": {
        "Name": "08JAL113802/12APDA18",
        "styleUrl": "#msn_ltblu-circle4",
        "source_layer": "Agua Subterraneas 2020",
        "source_document": "REPDA 2020.kml"
      },
      "geometry": {
        "type": "Point",
        "coordinates": [
          -103.5675,
          20.490556
        ]
      }
    },
    {
      "type": "Feature",
      "properties": {
        "Name": "08JAL134809/12FMDA17",
        "styleUrl": "#msn_ltblu-circle4",
        "source_layer": "Agua Subterraneas 2020",
        "source_document": "REPDA 2020.kml"
      },
      "geometry": {
        "type": "Point",
        "coordinates": [
          -103.568056,
          20.490556
        ]
      }
    },
    {
      "type": "Feature",
      "properties": {
        "Name": "08JAL110845/12APGR99",
        "styleUrl": "#msn_ltblu-circle4",
        "source_layer": "Agua Subterraneas 2020",
        "source_document": "REPDA 2020.kml"
      },
      "geometry": {
        "type": "Point",
        "coordinates": [
          -103.570833,
          20.490556
        ]
      }
    },
    {
      "type": "Feature",
      "properties": {
        "Name": "828129",
        "styleUrl": "#msn_ltblu-circle4",
        "source_layer": "Agua Subterraneas 2020",
        "source_document": "REPDA 2020.kml"
      },
      "geometry": {
        "type": "Point",
        "coordinates": [
          -103.566388694,
          20.46167
        ]
      }
    },
    {
      "type": "Feature",
      "properties": {
        "Name": "08JAL132996/12EMOC12",
        "styleUrl": "#msn_ltblu-circle4",
        "source_layer": "Agua Subterraneas 2020",
        "source_document": "REPDA 2020.kml"
      },
      "geometry": {
        "type": "Point",
        "coordinates": [
          -103.563056,
          20.463056
        ]
      }
    },
    {
      "type": "Feature",
      "properties": {
        "Name": "08JAL108400/12IMGR98 (1)",
        "styleUrl": "#msn_ltblu-circle4",
        "source_layer": "Agua Subterraneas 2020",
        "source_document": "REPDA 2020.kml"
      },
      "geometry": {
        "type": "Point",
        "coordinates": [
          -103.557222,
          20.463889
        ]
      }
    },
    {
      "type": "Feature",
      "properties": {
        "Name": "08JAL108400/12IMGR98 (2)",
        "styleUrl": "#msn_ltblu-circle4",
        "source_layer": "Agua Subterraneas 2020",
        "source_document": "REPDA 2020.kml"
      },
      "geometry": {
        "type": "Point",
        "coordinates": [
          -103.556944444,
          20.464444
        ]
      }
    },
    {
      "type": "Feature",
      "properties": {
        "Name": "08JAL129083/12AMDA16",
        "styleUrl": "#msn_ltblu-circle4",
        "source_layer": "Agua Subterraneas 2020",
        "source_document": "REPDA 2020.kml"
      },
      "geometry": {
        "type": "Point",
        "coordinates": [
          -103.546944,
          20.461389
        ]
      }
    },
    {
      "type": "Feature",
      "properties": {
        "Name": "08JAL106801/12HMGR98",
        "styleUrl": "#msn_ltblu-circle4",
        "source_layer": "Agua Subterraneas 2020",
        "source_document": "REPDA 2020.kml"
      },
      "geometry": {
        "type": "Point",
        "coordinates": [
          -103.550556,
          20.485833
        ]
      }
    },
    {
      "type": "Feature",
      "properties": {
        "Name": "08JAL112804/12IPGR99",
        "styleUrl": "#msn_ltblu-circle4",
        "source_layer": "Agua Subterraneas 2020",
        "source_document": "REPDA 2020.kml"
      },
      "geometry": {
        "type": "Point",
        "coordinates": [
          -103.538888889,
          20.485
        ]
      }
    },
    {
      "type": "Feature",
      "properties": {
        "Name": "08JAL116745/12GPGR99",
        "styleUrl": "#msn_ltblu-circle4",
        "source_layer": "Agua Subterraneas 2020",
        "source_document": "REPDA 2020.kml"
      },
      "geometry": {
        "type": "Point",
        "coordinates": [
          -103.537778,
          20.502778
        ]
      }
    },
    {
      "type": "Feature",
      "properties": {
        "Name": "4JAL100133/12AMGR94",
        "styleUrl": "#msn_ltblu-circle4",
        "source_layer": "Agua Subterraneas 2020",
        "source_document": "REPDA 2020.kml"
      },
      "geometry": {
        "type": "Point",
        "coordinates": [
          -103.5475,
          20.488889
        ]
      }
    },
    {
      "type": "Feature",
      "properties": {
        "Name": "08JAL162111/12IPDA19",
        "styleUrl": "#msn_ltblu-circle4",
        "source_layer": "Agua Subterraneas 2020",
        "source_document": "REPDA 2020.kml"
      },
      "geometry": {
        "type": "Point",
        "coordinates": [
          -103.551111,
          20.49
        ]
      }
    },
    {
      "type": "Feature",
      "properties": {
        "Name": "08JAL126122/12AMDA19",
        "styleUrl": "#msn_ltblu-circle4",
        "source_layer": "Agua Subterraneas 2020",
        "source_document": "REPDA 2020.kml"
      },
      "geometry": {
        "type": "Point",
        "coordinates": [
          -103.549722,
          20.491389
        ]
      }
    },
    {
      "type": "Feature",
      "properties": {
        "Name": "08JAL107382/12GPGR98",
        "styleUrl": "#msn_ltblu-circle4",
        "source_layer": "Agua Subterraneas 2020",
        "source_document": "REPDA 2020.kml"
      },
      "geometry": {
        "type": "Point",
        "coordinates": [
          -103.551111,
          20.491111
        ]
      }
    },
    {
      "type": "Feature",
      "properties": {
        "Name": "08JAL107961/12AMGR98",
        "styleUrl": "#msn_ltblu-circle4",
        "source_layer": "Agua Subterraneas 2020",
        "source_document": "REPDA 2020.kml"
      },
      "geometry": {
        "type": "Point",
        "coordinates": [
          -103.554167,
          20.489167
        ]
      }
    },
    {
      "type": "Feature",
      "properties": {
        "Name": "822689",
        "styleUrl": "#msn_ltblu-circle4",
        "source_layer": "Agua Subterraneas 2020",
        "source_document": "REPDA 2020.kml"
      },
      "geometry": {
        "type": "Point",
        "coordinates": [
          -103.555194,
          20.491779
        ]
      }
    },
    {
      "type": "Feature",
      "properties": {
        "Name": "08JAL122589/12APGR99",
        "styleUrl": "#msn_ltblu-circle4",
        "source_layer": "Agua Subterraneas 2020",
        "source_document": "REPDA 2020.kml"
      },
      "geometry": {
        "type": "Point",
        "coordinates": [
          -103.556111111,
          20.491944
        ]
      }
    },
    {
      "type": "Feature",
      "properties": {
        "Name": "08JAL156916/12AMDA17",
        "styleUrl": "#msn_ltblu-circle4",
        "source_layer": "Agua Subterraneas 2020",
        "source_document": "REPDA 2020.kml"
      },
      "geometry": {
        "type": "Point",
        "coordinates": [
          -103.555555556,
          20.493333
        ]
      }
    },
    {
      "type": "Feature",
      "properties": {
        "Name": "JAL125029",
        "styleUrl": "#msn_ltblu-circle4",
        "source_layer": "Agua Subterraneas 2020",
        "source_document": "REPDA 2020.kml"
      },
      "geometry": {
        "type": "Point",
        "coordinates": [
          -103.553056,
          20.493059
        ]
      }
    },
    {
      "type": "Feature",
      "properties": {
        "Name": "08JAL106130/12APOC12",
        "styleUrl": "#msn_ltblu-circle4",
        "source_layer": "Agua Subterraneas 2020",
        "source_document": "REPDA 2020.kml"
      },
      "geometry": {
        "type": "Point",
        "coordinates": [
          -103.554167,
          20.495833
        ]
      }
    },
    {
      "type": "Feature",
      "properties": {
        "Name": "824729",
        "styleUrl": "#msn_ltblu-circle4",
        "source_layer": "Agua Subterraneas 2020",
        "source_document": "REPDA 2020.kml"
      },
      "geometry": {
        "type": "Point",
        "coordinates": [
          -103.554167,
          20.496389
        ]
      }
    },
    {
      "type": "Feature",
      "properties": {
        "Name": "08JAL127080/12AMGR04",
        "styleUrl": "#msn_ltblu-circle4",
        "source_layer": "Agua Subterraneas 2020",
        "source_document": "REPDA 2020.kml"
      },
      "geometry": {
        "type": "Point",
        "coordinates": [
          -103.5525,
          20.496667
        ]
      }
    },
    {
      "type": "Feature",
      "properties": {
        "Name": "08JAL125682/12AMGR02",
        "styleUrl": "#msn_ltblu-circle4",
        "source_layer": "Agua Subterraneas 2020",
        "source_document": "REPDA 2020.kml"
      },
      "geometry": {
        "type": "Point",
        "coordinates": [
          -103.553333,
          20.497778
        ]
      }
    },
    {
      "type": "Feature",
      "properties": {
        "Name": "08JAL129897/12AMDA16",
        "styleUrl": "#msn_ltblu-circle4",
        "source_layer": "Agua Subterraneas 2020",
        "source_document": "REPDA 2020.kml"
      },
      "geometry": {
        "type": "Point",
        "coordinates": [
          -103.557777778,
          20.498889
        ]
      }
    },
    {
      "type": "Feature",
      "properties": {
        "Name": "08JAL135370/12AMOC12",
        "styleUrl": "#msn_ltblu-circle4",
        "source_layer": "Agua Subterraneas 2020",
        "source_document": "REPDA 2020.kml"
      },
      "geometry": {
        "type": "Point",
        "coordinates": [
          -103.561,
          20.492417
        ]
      }
    },
    {
      "type": "Feature",
      "properties": {
        "Name": "08JAL118854/12APGR99",
        "styleUrl": "#msn_ltblu-circle4",
        "source_layer": "Agua Subterraneas 2020",
        "source_document": "REPDA 2020.kml"
      },
      "geometry": {
        "type": "Point",
        "coordinates": [
          -103.562222222,
          20.494444
        ]
      }
    },
    {
      "type": "Feature",
      "properties": {
        "Name": "08JAL115928/12APGR99",
        "styleUrl": "#msn_ltblu-circle4",
        "source_layer": "Agua Subterraneas 2020",
        "source_document": "REPDA 2020.kml"
      },
      "geometry": {
        "type": "Point",
        "coordinates": [
          -103.559166667,
          20.494722
        ]
      }
    },
    {
      "type": "Feature",
      "properties": {
        "Name": "823149",
        "styleUrl": "#msn_ltblu-circle4",
        "source_layer": "Agua Subterraneas 2020",
        "source_document": "REPDA 2020.kml"
      },
      "geometry": {
        "type": "Point",
        "coordinates": [
          -103.56,
          20.495833
        ]
      }
    },
    {
      "type": "Feature",
      "properties": {
        "Name": "JAL134204",
        "styleUrl": "#msn_ltblu-circle4",
        "source_layer": "Agua Subterraneas 2020",
        "source_document": "REPDA 2020.kml"
      },
      "geometry": {
        "type": "Point",
        "coordinates": [
          -103.562222,
          20.496392
        ]
      }
    },
    {
      "type": "Feature",
      "properties": {
        "Name": "08JAL117717/12APGR99",
        "styleUrl": "#msn_ltblu-circle4",
        "source_layer": "Agua Subterraneas 2020",
        "source_document": "REPDA 2020.kml"
      },
      "geometry": {
        "type": "Point",
        "coordinates": [
          -103.561944,
          20.497222
        ]
      }
    },
    {
      "type": "Feature",
      "properties": {
        "Name": "08JAL161501/12AMDA18",
        "styleUrl": "#msn_ltblu-circle4",
        "source_layer": "Agua Subterraneas 2020",
        "source_document": "REPDA 2020.kml"
      },
      "geometry": {
        "type": "Point",
        "coordinates": [
          -103.563333,
          20.497778
        ]
      }
    },
    {
      "type": "Feature",
      "properties": {
        "Name": "08JAL115492/12APGR99",
        "styleUrl": "#msn_ltblu-circle4",
        "source_layer": "Agua Subterraneas 2020",
        "source_document": "REPDA 2020.kml"
      },
      "geometry": {
        "type": "Point",
        "coordinates": [
          -103.565833333,
          20.495556
        ]
      }
    },
    {
      "type": "Feature",
      "properties": {
        "Name": "08JAL136091/12FPDA17",
        "styleUrl": "#msn_ltblu-circle4",
        "source_layer": "Agua Subterraneas 2020",
        "source_document": "REPDA 2020.kml"
      },
      "geometry": {
        "type": "Point",
        "coordinates": [
          -103.566667,
          20.496667
        ]
      }
    },
    {
      "type": "Feature",
      "properties": {
        "Name": "08JAL105639/12AMGR97",
        "styleUrl": "#msn_ltblu-circle4",
        "source_layer": "Agua Subterraneas 2020",
        "source_document": "REPDA 2020.kml"
      },
      "geometry": {
        "type": "Point",
        "coordinates": [
          -103.560556,
          20.497222
        ]
      }
    },
    {
      "type": "Feature",
      "properties": {
        "Name": "08JAL122052/12AMDA18",
        "styleUrl": "#msn_ltblu-circle4",
        "source_layer": "Agua Subterraneas 2020",
        "source_document": "REPDA 2020.kml"
      },
      "geometry": {
        "type": "Point",
        "coordinates": [
          -103.570556,
          20.4975
        ]
      }
    },
    {
      "type": "Feature",
      "properties": {
        "Name": "08JAL161365/12AMDA18",
        "styleUrl": "#msn_ltblu-circle4",
        "source_layer": "Agua Subterraneas 2020",
        "source_document": "REPDA 2020.kml"
      },
      "geometry": {
        "type": "Point",
        "coordinates": [
          -103.57,
          20.498611
        ]
      }
    },
    {
      "type": "Feature",
      "properties": {
        "Name": "819049",
        "styleUrl": "#msn_ltblu-circle4",
        "source_layer": "Agua Subterraneas 2020",
        "source_document": "REPDA 2020.kml"
      },
      "geometry": {
        "type": "Point",
        "coordinates": [
          -103.555115,
          20.5047
        ]
      }
    },
    {
      "type": "Feature",
      "properties": {
        "Name": "08JAL106337/12ISDA17",
        "styleUrl": "#msn_ltblu-circle4",
        "source_layer": "Agua Subterraneas 2020",
        "source_document": "REPDA 2020.kml"
      },
      "geometry": {
        "type": "Point",
        "coordinates": [
          -103.554444,
          20.503889
        ]
      }
    },
    {
      "type": "Feature",
      "properties": {
        "Name": "08JAL128162/12AMGR05",
        "styleUrl": "#msn_ltblu-circle4",
        "source_layer": "Agua Subterraneas 2020",
        "source_document": "REPDA 2020.kml"
      },
      "geometry": {
        "type": "Point",
        "coordinates": [
          -103.553611,
          20.503056
        ]
      }
    }
  ]
}