{
  "type": "FeatureCollection",
  "name": "humedal",
  "features": [
    {
      "type": "Feature",
      "properties": {
        "Name": "Humedal",
        "styleUrl": "#msn_ylw-pushpin",
        "source_layer": "Humedal 2020",
        "source_document": "Humedal 2020.kml"
      },
      "geometry": {
        "type": "Polygon",
        "coordinates": [
          [
            [
              -103.5477946290235,
              20.4821920065149
            ],
            [
              -103.5504082984441,
              20.47960343529106
            ],
            [
              -103.5496416287638,
              20.47831381823533
            ],
            [
              -103.5493576643973,
              20.47828014409423
            ],
            [
              -103.5493081901681,
              20.47799446942003
            ],
            [
              -103.5491417131475,
              20.47789436625299
            ],
            [
              -103.5491578332582,
              20.47754302388382
            ],
            [
              -103.5488626687426,
              20.4775677698706
            ],
            [
              -103.5484495619189,
              20.47696050274699
            ],
            [
              -103.5466096950105,
              20.47389922847644
            ],
            [
              -103.5416406369916,
              20.47179220885944
            ],
            [
              -103.5413832224415,
              20.470205189614
            ],
            [
              -103.540426002278,
              20.46823593844545
            ],
            [
              -103.5391738935634,
              20.4676009645312
            ],
            [
              -103.5377646963214,
              20.46797974931193
            ],
            [
              -103.5356461999305,
              20.46812318797172
            ],
            [
              -103.5345336301395,
              20.46785432726226
            ],
            [
              -103.5304531635835,
              20.46631850987319
            ],
            [
              -103.5289252408177,
              20.46621733867891
            ],
            [
              -103.5285336635317,
              20.46571224011779
            ],
            [
              -103.527866659634,
              20.46550304418815
            ],
            [
              -103.5279263846331,
              20.46448771890672
            ],
            [
              -103.5267241117799,
              20.46392913588691
            ],
            [
              -103.525621250119,
              20.4640866935399
            ],
            [
              -103.524175510517,
              20.46393974858376
            ],
            [
              -103.5211313623561,
              20.46413177651824
            ],
            [
              -103.5192019894817,
              20.46477958190544
            ],
            [
              -103.5168432596336,
              20.46493272127828
            ],
            [
              -103.5158904912394,
              20.46409871044253
            ],
            [
              -103.5159149319856,
              20.46477145176111
            ],
            [
              -103.5152734541296,
              20.46517462908351
            ],
            [
              -103.5141194213755,
              20.46509710420413
            ],
            [
              -103.5140738554205,
              20.46436022969661
            ],
            [
              -103.5139084423662,
              20.46369043255995
            ],
            [
              -103.5138811244702,
              20.46365401607142
            ],
            [
              -103.5136634400734,
              20.46329417281916
            ],
            [
              -103.5128831644772,
              20.46351304497862
            ],
            [
              -103.5123316265954,
              20.46393858900383
            ],
            [
              -103.5120948046455,
              20.46420052091671
            ],
            [
              -103.5117411409382,
              20.46415200306372
            ],
            [
              -103.5113538497475,
              20.46377921587555
            ],
            [
              -103.5111349739333,
              20.46359359832272
            ],
            [
              -103.5110754129731,
              20.46344940405777
            ],
            [
              -103.5106490998724,
              20.4639562544152
            ],
            [
              -103.5071492204572,
              20.4685461189005
            ],
            [
              -103.5132503083798,
              20.47222282010044
            ],
            [
              -103.5152032496392,
              20.47320684853814
            ],
            [
              -103.5166458711797,
              20.47569677260048
            ],
            [
              -103.5170699155193,
              20.47601342565972
            ],
            [
              -103.5173650478448,
              20.47602376585602
            ],
            [
              -103.5182809081308,
              20.47677637418352
            ],
            [
              -103.5200928169834,
              20.47626281814059
            ],
            [
              -103.5232839447461,
              20.4772185118434
            ],
            [
              -103.5260789487607,
              20.47747609150187
            ],
            [
              -103.5353514910931,
              20.47644795374761
            ],
            [
              -103.5367991814596,
              20.47616612339107
            ],
            [
              -103.5377191304176,
              20.47715661515805
            ],
            [
              -103.5382862624058,
              20.47740406490424
            ],
            [
              -103.5383841497716,
              20.47636336772839
            ],
            [
              -103.5395877136342,
              20.47659561330962
            ],
            [
              -103.5397651931333,
              20.47808154685111
            ],
            [
              -103.5415012294204,
              20.47864458941085
            ],
            [
              -103.5437112382815,
              20.47857011951169
            ],
            [
              -103.5457064837537,
              20.47961407807442
            ],
            [
              -103.5477946290235,
              20.4821920065149
            ]
          ]
        ]
      }
    }
  ]
}