{
  "type": "FeatureCollection",
  "name": "pozos-domestico-domo-riego",
  "features": [
    {
      "type": "Feature",
      "properties": {
        "Name": "87",
        "tessellate": -1,
        "extrude": 0,
        "visibility": -1,
        "source_layer": "Pozos para uso doméstico"
      },
      "geometry": {
        "type": "Point",
        "coordinates": [
          -103.5201166824534,
          20.45486506249356
        ]
      }
    },
    {
      "type": "Feature",
      "properties": {
        "Name": "89",
        "tessellate": -1,
        "extrude": 0,
        "visibility": -1,
        "source_layer": "Pozos para uso doméstico"
      },
      "geometry": {
        "type": "Point",
        "coordinates": [
          -103.5573262635527,
          20.47308191725141
        ]
      }
    },
    {
      "type": "Feature",
      "properties": {
        "Name": "88",
        "tessellate": -1,
        "extrude": 0,
        "visibility": -1,
        "source_layer": "Pozos para uso doméstico"
      },
      "geometry": {
        "type": "Point",
        "coordinates": [
          -103.5473615318779,
          20.48833026495553
        ]
      }
    },
    {
      "type": "Feature",
      "properties": {
        "Name": "12",
        "tessellate": -1,
        "extrude": 0,
        "visibility": -1,
        "source_layer": "Pozos para uso doméstico"
      },
      "geometry": {
        "type": "Point",
        "coordinates": [
          -103.501583945332,
          20.48379624354146
        ]
      }
    },

    {
      "type": "Feature",
      "properties": {
        "Name": "I",
        "tessellate": -1,
        "extrude": 0,
        "visibility": -1,
        "source_layer": "Pozos Domo sur la Primavera"
      },
      "geometry": {
        "type": "Point",
        "coordinates": [
          -103.542495227619,
          20.48233975494437
        ]
      }
    },
    {
      "type": "Feature",
      "properties": {
        "Name": "II",
        "tessellate": -1,
        "extrude": 0,
        "visibility": -1,
        "source_layer": "Pozos Domo sur la Primavera"
      },
      "geometry": {
        "type": "Point",
        "coordinates": [
          -103.5394115028691,
          20.48122331386618
        ]
      }
    },
    {
      "type": "Feature",
      "properties": {
        "Name": "III",
        "tessellate": -1,
        "extrude": 0,
        "visibility": -1,
        "source_layer": "Pozos Domo sur la Primavera"
      },
      "geometry": {
        "type": "Point",
        "coordinates": [
          -103.5364473188379,
          20.48008616395883
        ]
      }
    },
    {
      "type": "Feature",
      "properties": {
        "Name": "IV",
        "tessellate": -1,
        "extrude": 0,
        "visibility": -1,
        "source_layer": "Pozos Domo sur la Primavera"
      },
      "geometry": {
        "type": "Point",
        "coordinates": [
          -103.5312450957429,
          20.47992057947133
        ]
      }
    },
    {
      "type": "Feature",
      "properties": {
        "Name": "V",
        "tessellate": -1,
        "extrude": 0,
        "visibility": -1,
        "source_layer": "Pozos Domo sur la Primavera"
      },
      "geometry": {
        "type": "Point",
        "coordinates": [
          -103.5269092418794,
          20.47971213520301
        ]
      }
    },
    {
      "type": "Feature",
      "properties": {
        "Name": "VI",
        "tessellate": -1,
        "extrude": 0,
        "visibility": -1,
        "source_layer": "Pozos Domo sur la Primavera"
      },
      "geometry": {
        "type": "Point",
        "coordinates": [
          -103.5175607877857,
          20.48179832238347
        ]
      }
    },
    {
      "type": "Feature",
      "properties": {
        "Name": "VII",
        "tessellate": -1,
        "extrude": 0,
        "visibility": -1,
        "source_layer": "Pozos Domo sur la Primavera"
      },
      "geometry": {
        "type": "Point",
        "coordinates": [
          -103.5120774383553,
          20.48320331647414
        ]
      }
    },
    {
      "type": "Feature",
      "properties": {
        "Name": "VIII",
        "tessellate": -1,
        "extrude": 0,
        "visibility": -1,
        "source_layer": "Pozos Domo sur la Primavera"
      },
      "geometry": {
        "type": "Point",
        "coordinates": [
          -103.5031022067264,
          20.48563050238927
        ]
      }
    },
    {
      "type": "Feature",
      "properties": {
        "Name": "IX",
        "tessellate": -1,
        "extrude": 0,
        "visibility": -1,
        "source_layer": "Pozos Domo sur la Primavera"
      },
      "geometry": {
        "type": "Point",
        "coordinates": [
          -103.4972855748064,
          20.48653184910071
        ]
      }
    },

    {
      "type": "Feature",
      "properties": {
        "Name": "2",
        "tessellate": -1,
        "extrude": 0,
        "visibility": -1,
        "source_layer": "Pozos profundos y norias de riego"
      },
      "geometry": {
        "type": "Point",
        "coordinates": [
          -103.4956486534208,
          20.47886324945697
        ]
      }
    },
    {
      "type": "Feature",
      "properties": {
        "Name": "3",
        "tessellate": -1,
        "extrude": 0,
        "visibility": -1,
        "source_layer": "Pozos profundos y norias de riego"
      },
      "geometry": {
        "type": "Point",
        "coordinates": [
          -103.4951075412833,
          20.47920416489951
        ]
      }
    },
    {
      "type": "Feature",
      "properties": {
        "Name": "4",
        "tessellate": -1,
        "extrude": 0,
        "visibility": -1,
        "source_layer": "Pozos profundos y norias de riego"
      },
      "geometry": {
        "type": "Point",
        "coordinates": [
          -103.4951763316363,
          20.47637073086636
        ]
      }
    },
    {
      "type": "Feature",
      "properties": {
        "Name": "5",
        "tessellate": -1,
        "extrude": 0,
        "visibility": -1,
        "source_layer": "Pozos profundos y norias de riego"
      },
      "geometry": {
        "type": "Point",
        "coordinates": [
          -103.5028037739075,
          20.4841154645755
        ]
      }
    },
    {
      "type": "Feature",
      "properties": {
        "Name": "6",
        "tessellate": -1,
        "extrude": 0,
        "visibility": -1,
        "source_layer": "Pozos profundos y norias de riego"
      },
      "geometry": {
        "type": "Point",
        "coordinates": [
          -103.5029313900829,
          20.48497110206683
        ]
      }
    },
    {
      "type": "Feature",
      "properties": {
        "Name": "7",
        "tessellate": -1,
        "extrude": 0,
        "visibility": -1,
        "source_layer": "Pozos profundos y norias de riego"
      },
      "geometry": {
        "type": "Point",
        "coordinates": [
          -103.5044901764239,
          20.48361664154027
        ]
      }
    },
    {
      "type": "Feature",
      "properties": {
        "Name": "8",
        "tessellate": -1,
        "extrude": 0,
        "visibility": -1,
        "source_layer": "Pozos profundos y norias de riego"
      },
      "geometry": {
        "type": "Point",
        "coordinates": [
          -103.4958733852466,
          20.48409484849467
        ]
      }
    },
    {
      "type": "Feature",
      "properties": {
        "Name": "9",
        "tessellate": -1,
        "extrude": 0,
        "visibility": -1,
        "source_layer": "Pozos profundos y norias de riego"
      },
      "geometry": {
        "type": "Point",
        "coordinates": [
          -103.5038890742016,
          20.48432409455731
        ]
      }
    },
    {
      "type": "Feature",
      "properties": {
        "Name": "10",
        "tessellate": -1,
        "extrude": 0,
        "visibility": -1,
        "source_layer": "Pozos profundos y norias de riego"
      },
      "geometry": {
        "type": "Point",
        "coordinates": [
          -103.4983902366548,
          20.48406799456079
        ]
      }
    },
    {
      "type": "Feature",
      "properties": {
        "Name": "11",
        "tessellate": -1,
        "extrude": 0,
        "visibility": -1,
        "source_layer": "Pozos profundos y norias de riego"
      },
      "geometry": {
        "type": "Point",
        "coordinates": [
          -103.505355014613,
          20.48387227054976
        ]
      }
    },
    {
      "type": "Feature",
      "properties": {
        "Name": "13",
        "tessellate": -1,
        "extrude": 0,
        "visibility": -1,
        "source_layer": "Pozos profundos y norias de riego"
      },
      "geometry": {
        "type": "Point",
        "coordinates": [
          -103.5072731436097,
          20.48192351197583
        ]
      }
    },
    {
      "type": "Feature",
      "properties": {
        "Name": "14",
        "tessellate": -1,
        "extrude": 0,
        "visibility": -1,
        "source_layer": "Pozos profundos y norias de riego"
      },
      "geometry": {
        "type": "Point",
        "coordinates": [
          -103.5087664069475,
          20.48280728705186
        ]
      }
    },
    {
      "type": "Feature",
      "properties": {
        "Name": "15",
        "tessellate": -1,
        "extrude": 0,
        "visibility": -1,
        "source_layer": "Pozos profundos y norias de riego"
      },
      "geometry": {
        "type": "Point",
        "coordinates": [
          -103.5081857681203,
          20.48174713902547
        ]
      }
    },
    {
      "type": "Feature",
      "properties": {
        "Name": "16",
        "tessellate": -1,
        "extrude": 0,
        "visibility": -1,
        "source_layer": "Pozos profundos y norias de riego"
      },
      "geometry": {
        "type": "Point",
        "coordinates": [
          -103.5095549476123,
          20.48178784125863
        ]
      }
    },
    {
      "type": "Feature",
      "properties": {
        "Name": "17",
        "tessellate": -1,
        "extrude": 0,
        "visibility": -1,
        "source_layer": "Pozos profundos y norias de riego"
      },
      "geometry": {
        "type": "Point",
        "coordinates": [
          -103.5032333025757,
          20.48676432947203
        ]
      }
    },
    {
      "type": "Feature",
      "properties": {
        "Name": "18",
        "tessellate": -1,
        "extrude": 0,
        "visibility": -1,
        "source_layer": "Pozos profundos y norias de riego"
      },
      "geometry": {
        "type": "Point",
        "coordinates": [
          -103.4937768708398,
          20.48843671829242
        ]
      }
    },
    {
      "type": "Feature",
      "properties": {
        "Name": "19",
        "tessellate": -1,
        "extrude": 0,
        "visibility": -1,
        "source_layer": "Pozos profundos y norias de riego"
      },
      "geometry": {
        "type": "Point",
        "coordinates": [
          -103.4933692563696,
          20.48810797513701
        ]
      }
    },
    {
      "type": "Feature",
      "properties": {
        "Name": "20",
        "tessellate": -1,
        "extrude": 0,
        "visibility": -1,
        "source_layer": "Pozos profundos y norias de riego"
      },
      "geometry": {
        "type": "Point",
        "coordinates": [
          -103.4923497636805,
          20.48881384935008
        ]
      }
    },
    {
      "type": "Feature",
      "properties": {
        "Name": "21-A",
        "tessellate": -1,
        "extrude": 0,
        "visibility": -1,
        "source_layer": "Pozos profundos y norias de riego"
      },
      "geometry": {
        "type": "Point",
        "coordinates": [
          -103.4935248239033,
          20.48694212267582
        ]
      }
    },
    {
      "type": "Feature",
      "properties": {
        "Name": "21-B",
        "tessellate": -1,
        "extrude": 0,
        "visibility": -1,
        "source_layer": "Pozos profundos y norias de riego"
      },
      "geometry": {
        "type": "Point",
        "coordinates": [
          -103.4916357671535,
          20.48599719579271
        ]
      }
    },
    {
      "type": "Feature",
      "properties": {
        "Name": "22",
        "tessellate": -1,
        "extrude": 0,
        "visibility": -1,
        "source_layer": "Pozos profundos y norias de riego"
      },
      "geometry": {
        "type": "Point",
        "coordinates": [
          -103.4933721240965,
          20.48296737400945
        ]
      }
    },
    {
      "type": "Feature",
      "properties": {
        "Name": "23",
        "tessellate": -1,
        "extrude": 0,
        "visibility": -1,
        "source_layer": "Pozos profundos y norias de riego"
      },
      "geometry": {
        "type": "Point",
        "coordinates": [
          -103.4959579923047,
          20.48523360866135
        ]
      }
    },
    {
      "type": "Feature",
      "properties": {
        "Name": "24",
        "tessellate": -1,
        "extrude": 0,
        "visibility": -1,
        "source_layer": "Pozos profundos y norias de riego"
      },
      "geometry": {
        "type": "Point",
        "coordinates": [
          -103.4936801018877,
          20.47778297087649
        ]
      }
    },
    {
      "type": "Feature",
      "properties": {
        "Name": "25",
        "tessellate": -1,
        "extrude": 0,
        "visibility": -1,
        "source_layer": "Pozos profundos y norias de riego"
      },
      "geometry": {
        "type": "Point",
        "coordinates": [
          -103.5041575787167,
          20.4682607734581
        ]
      }
    },
    {
      "type": "Feature",
      "properties": {
        "Name": "26",
        "tessellate": -1,
        "extrude": 0,
        "visibility": -1,
        "source_layer": "Pozos profundos y norias de riego"
      },
      "geometry": {
        "type": "Point",
        "coordinates": [
          -103.5007656057083,
          20.47974967276728
        ]
      }
    },
    {
      "type": "Feature",
      "properties": {
        "Name": "27",
        "tessellate": -1,
        "extrude": 0,
        "visibility": -1,
        "source_layer": "Pozos profundos y norias de riego"
      },
      "geometry": {
        "type": "Point",
        "coordinates": [
          -103.5021452306279,
          20.48003644565408
        ]
      }
    },
    {
      "type": "Feature",
      "properties": {
        "Name": "28",
        "tessellate": -1,
        "extrude": 0,
        "visibility": -1,
        "source_layer": "Pozos profundos y norias de riego"
      },
      "geometry": {
        "type": "Point",
        "coordinates": [
          -103.5189377579362,
          20.47930389164878
        ]
      }
    },
    {
      "type": "Feature",
      "properties": {
        "Name": "29",
        "tessellate": -1,
        "extrude": 0,
        "visibility": -1,
        "source_layer": "Pozos profundos y norias de riego"
      },
      "geometry": {
        "type": "Point",
        "coordinates": [
          -103.5052939983862,
          20.4808686934105
        ]
      }
    },
    {
      "type": "Feature",
      "properties": {
        "Name": "30",
        "tessellate": -1,
        "extrude": 0,
        "visibility": -1,
        "source_layer": "Pozos profundos y norias de riego"
      },
      "geometry": {
        "type": "Point",
        "coordinates": [
          -103.5051895957319,
          20.48190105600595
        ]
      }
    },
    {
      "type": "Feature",
      "properties": {
        "Name": "31",
        "tessellate": -1,
        "extrude": 0,
        "visibility": -1,
        "source_layer": "Pozos profundos y norias de riego"
      },
      "geometry": {
        "type": "Point",
        "coordinates": [
          -103.5041793196203,
          20.47932703319304
        ]
      }
    },
    {
      "type": "Feature",
      "properties": {
        "Name": "32",
        "tessellate": -1,
        "extrude": 0,
        "visibility": -1,
        "source_layer": "Pozos profundos y norias de riego"
      },
      "geometry": {
        "type": "Point",
        "coordinates": [
          -103.506806789949,
          20.47911581404705
        ]
      }
    },
    {
      "type": "Feature",
      "properties": {
        "Name": "33",
        "tessellate": -1,
        "extrude": 0,
        "visibility": -1,
        "source_layer": "Pozos profundos y norias de riego"
      },
      "geometry": {
        "type": "Point",
        "coordinates": [
          -103.5019740523735,
          20.48510558748866
        ]
      }
    },
    {
      "type": "Feature",
      "properties": {
        "Name": "34",
        "tessellate": -1,
        "extrude": 0,
        "visibility": -1,
        "source_layer": "Pozos profundos y norias de riego"
      },
      "geometry": {
        "type": "Point",
        "coordinates": [
          -103.5062269998753,
          20.47807056900233
        ]
      }
    },
    {
      "type": "Feature",
      "properties": {
        "Name": "35",
        "tessellate": -1,
        "extrude": 0,
        "visibility": -1,
        "source_layer": "Pozos profundos y norias de riego"
      },
      "geometry": {
        "type": "Point",
        "coordinates": [
          -103.5063667922829,
          20.48221872755296
        ]
      }
    },
    {
      "type": "Feature",
      "properties": {
        "Name": "36",
        "tessellate": -1,
        "extrude": 0,
        "visibility": -1,
        "source_layer": "Pozos profundos y norias de riego"
      },
      "geometry": {
        "type": "Point",
        "coordinates": [
          -103.50753770545,
          20.48241755321636
        ]
      }
    },
    {
      "type": "Feature",
      "properties": {
        "Name": "37",
        "tessellate": -1,
        "extrude": 0,
        "visibility": -1,
        "source_layer": "Pozos profundos y norias de riego"
      },
      "geometry": {
        "type": "Point",
        "coordinates": [
          -103.4951196609636,
          20.48417643049853
        ]
      }
    },
    {
      "type": "Feature",
      "properties": {
        "Name": "38",
        "tessellate": -1,
        "extrude": 0,
        "visibility": -1,
        "source_layer": "Pozos profundos y norias de riego"
      },
      "geometry": {
        "type": "Point",
        "coordinates": [
          -103.4978705445262,
          20.48270426971861
        ]
      }
    },
    {
      "type": "Feature",
      "properties": {
        "Name": "39-A",
        "tessellate": -1,
        "extrude": 0,
        "visibility": -1,
        "source_layer": "Pozos profundos y norias de riego"
      },
      "geometry": {
        "type": "Point",
        "coordinates": [
          -103.4902518605118,
          20.47371031134771
        ]
      }
    },
    {
      "type": "Feature",
      "properties": {
        "Name": "39-B",
        "tessellate": -1,
        "extrude": 0,
        "visibility": -1,
        "source_layer": "Pozos profundos y norias de riego"
      },
      "geometry": {
        "type": "Point",
        "coordinates": [
          -103.4901167259614,
          20.47317227948345
        ]
      }
    },
    {
      "type": "Feature",
      "properties": {
        "Name": "40",
        "tessellate": -1,
        "extrude": 0,
        "visibility": -1,
        "source_layer": "Pozos profundos y norias de riego"
      },
      "geometry": {
        "type": "Point",
        "coordinates": [
          -103.4977066545724,
          20.46098331975683
        ]
      }
    },
    {
      "type": "Feature",
      "properties": {
        "Name": "41",
        "tessellate": -1,
        "extrude": 0,
        "visibility": -1,
        "source_layer": "Pozos profundos y norias de riego"
      },
      "geometry": {
        "type": "Point",
        "coordinates": [
          -103.4888750168491,
          20.47437665954006
        ]
      }
    },
    {
      "type": "Feature",
      "properties": {
        "Name": "42",
        "tessellate": -1,
        "extrude": 0,
        "visibility": -1,
        "source_layer": "Pozos profundos y norias de riego"
      },
      "geometry": {
        "type": "Point",
        "coordinates": [
          -103.5434851399279,
          20.48368698828429
        ]
      }
    },
    {
      "type": "Feature",
      "properties": {
        "Name": "43",
        "tessellate": -1,
        "extrude": 0,
        "visibility": -1,
        "source_layer": "Pozos profundos y norias de riego"
      },
      "geometry": {
        "type": "Point",
        "coordinates": [
          -103.5419110206362,
          20.48324011131299
        ]
      }
    },
    {
      "type": "Feature",
      "properties": {
        "Name": "44",
        "tessellate": -1,
        "extrude": 0,
        "visibility": -1,
        "source_layer": "Pozos profundos y norias de riego"
      },
      "geometry": {
        "type": "Point",
        "coordinates": [
          -103.4913677755286,
          20.47740258749113
        ]
      }
    },
    {
      "type": "Feature",
      "properties": {
        "Name": "45",
        "tessellate": -1,
        "extrude": 0,
        "visibility": -1,
        "source_layer": "Pozos profundos y norias de riego"
      },
      "geometry": {
        "type": "Point",
        "coordinates": [
          -103.4924003748902,
          20.47488883171478
        ]
      }
    },
    {
      "type": "Feature",
      "properties": {
        "Name": "46",
        "tessellate": -1,
        "extrude": 0,
        "visibility": -1,
        "source_layer": "Pozos profundos y norias de riego"
      },
      "geometry": {
        "type": "Point",
        "coordinates": [
          -103.4913274589185,
          20.47926583352896
        ]
      }
    },
    {
      "type": "Feature",
      "properties": {
        "Name": "47",
        "tessellate": -1,
        "extrude": 0,
        "visibility": -1,
        "source_layer": "Pozos profundos y norias de riego"
      },
      "geometry": {
        "type": "Point",
        "coordinates": [
          -103.4886296003011,
          20.47903079563398
        ]
      }
    },
    {
      "type": "Feature",
      "properties": {
        "Name": "48",
        "tessellate": -1,
        "extrude": 0,
        "visibility": -1,
        "source_layer": "Pozos profundos y norias de riego"
      },
      "geometry": {
        "type": "Point",
        "coordinates": [
          -103.4929214130549,
          20.47896863290037
        ]
      }
    },
    {
      "type": "Feature",
      "properties": {
        "Name": "49",
        "tessellate": -1,
        "extrude": 0,
        "visibility": -1,
        "source_layer": "Pozos profundos y norias de riego"
      },
      "geometry": {
        "type": "Point",
        "coordinates": [
          -103.49088834547,
          20.47110053770215
        ]
      }
    },
    {
      "type": "Feature",
      "properties": {
        "Name": "50",
        "tessellate": -1,
        "extrude": 0,
        "visibility": -1,
        "source_layer": "Pozos profundos y norias de riego"
      },
      "geometry": {
        "type": "Point",
        "coordinates": [
          -103.5224148868008,
          20.47843387880843
        ]
      }
    },
    {
      "type": "Feature",
      "properties": {
        "Name": "51",
        "tessellate": -1,
        "extrude": 0,
        "visibility": -1,
        "source_layer": "Pozos profundos y norias de riego"
      },
      "geometry": {
        "type": "Point",
        "coordinates": [
          -103.4944315624093,
          20.47344019424273
        ]
      }
    },
    {
      "type": "Feature",
      "properties": {
        "Name": "52",
        "tessellate": -1,
        "extrude": 0,
        "visibility": -1,
        "source_layer": "Pozos profundos y norias de riego"
      },
      "geometry": {
        "type": "Point",
        "coordinates": [
          -103.4899450060795,
          20.47920848408629
        ]
      }
    },
    {
      "type": "Feature",
      "properties": {
        "Name": "53",
        "tessellate": -1,
        "extrude": 0,
        "visibility": -1,
        "source_layer": "Pozos profundos y norias de riego"
      },
      "geometry": {
        "type": "Point",
        "coordinates": [
          -103.5234010277262,
          20.47855147508271
        ]
      }
    },
    {
      "type": "Feature",
      "properties": {
        "Name": "54",
        "tessellate": -1,
        "extrude": 0,
        "visibility": -1,
        "source_layer": "Pozos profundos y norias de riego"
      },
      "geometry": {
        "type": "Point",
        "coordinates": [
          -103.5387714445716,
          20.48195312218396
        ]
      }
    },
    {
      "type": "Feature",
      "properties": {
        "Name": "55",
        "tessellate": -1,
        "extrude": 0,
        "visibility": -1,
        "source_layer": "Pozos profundos y norias de riego"
      },
      "geometry": {
        "type": "Point",
        "coordinates": [
          -103.5345159352854,
          20.48062387094187
        ]
      }
    },
    {
      "type": "Feature",
      "properties": {
        "Name": "56-A",
        "tessellate": -1,
        "extrude": 0,
        "visibility": -1,
        "source_layer": "Pozos profundos y norias de riego"
      },
      "geometry": {
        "type": "Point",
        "coordinates": [
          -103.5431333833836,
          20.4857779580592
        ]
      }
    },
    {
      "type": "Feature",
      "properties": {
        "Name": "56-B",
        "tessellate": -1,
        "extrude": 0,
        "visibility": -1,
        "source_layer": "Pozos profundos y norias de riego"
      },
      "geometry": {
        "type": "Point",
        "coordinates": [
          -103.5427604531336,
          20.48520725052832
        ]
      }
    },
    {
      "type": "Feature",
      "properties": {
        "Name": "56-C",
        "tessellate": -1,
        "extrude": 0,
        "visibility": -1,
        "source_layer": "Pozos profundos y norias de riego"
      },
      "geometry": {
        "type": "Point",
        "coordinates": [
          -103.5428096326758,
          20.48450787472171
        ]
      }
    },
    {
      "type": "Feature",
      "properties": {
        "Name": "57",
        "tessellate": -1,
        "extrude": 0,
        "visibility": -1,
        "source_layer": "Pozos profundos y norias de riego"
      },
      "geometry": {
        "type": "Point",
        "coordinates": [
          -103.5466949680737,
          20.48478597011934
        ]
      }
    },
    {
      "type": "Feature",
      "properties": {
        "Name": "58",
        "tessellate": -1,
        "extrude": 0,
        "visibility": -1,
        "source_layer": "Pozos profundos y norias de riego"
      },
      "geometry": {
        "type": "Point",
        "coordinates": [
          -103.5452941091639,
          20.48490767315931
        ]
      }
    },
    {
      "type": "Feature",
      "properties": {
        "Name": "59",
        "tessellate": -1,
        "extrude": 0,
        "visibility": -1,
        "source_layer": "Pozos profundos y norias de riego"
      },
      "geometry": {
        "type": "Point",
        "coordinates": [
          -103.5452435097495,
          20.48273916734036
        ]
      }
    },
    {
      "type": "Feature",
      "properties": {
        "Name": "60",
        "tessellate": -1,
        "extrude": 0,
        "visibility": -1,
        "source_layer": "Pozos profundos y norias de riego"
      },
      "geometry": {
        "type": "Point",
        "coordinates": [
          -103.5497215518525,
          20.48457623666038
        ]
      }
    },
    {
      "type": "Feature",
      "properties": {
        "Name": "61",
        "tessellate": -1,
        "extrude": 0,
        "visibility": -1,
        "source_layer": "Pozos profundos y norias de riego"
      },
      "geometry": {
        "type": "Point",
        "coordinates": [
          -103.5531481046843,
          20.48998952090663
        ]
      }
    },
    {
      "type": "Feature",
      "properties": {
        "Name": "62",
        "tessellate": -1,
        "extrude": 0,
        "visibility": -1,
        "source_layer": "Pozos profundos y norias de riego"
      },
      "geometry": {
        "type": "Point",
        "coordinates": [
          -103.5509230326063,
          20.49264826010735
        ]
      }
    },
    {
      "type": "Feature",
      "properties": {
        "Name": "63",
        "tessellate": -1,
        "extrude": 0,
        "visibility": -1,
        "source_layer": "Pozos profundos y norias de riego"
      },
      "geometry": {
        "type": "Point",
        "coordinates": [
          -103.5289354214132,
          20.47983257124213
        ]
      }
    },
    {
      "type": "Feature",
      "properties": {
        "Name": "64",
        "tessellate": -1,
        "extrude": 0,
        "visibility": -1,
        "source_layer": "Pozos profundos y norias de riego"
      },
      "geometry": {
        "type": "Point",
        "coordinates": [
          -103.5110236891821,
          20.47559957625171
        ]
      }
    },
    {
      "type": "Feature",
      "properties": {
        "Name": "65",
        "tessellate": -1,
        "extrude": 0,
        "visibility": -1,
        "source_layer": "Pozos profundos y norias de riego"
      },
      "geometry": {
        "type": "Point",
        "coordinates": [
          -103.5122311780458,
          20.47709213477002
        ]
      }
    },
    {
      "type": "Feature",
      "properties": {
        "Name": "66",
        "tessellate": -1,
        "extrude": 0,
        "visibility": -1,
        "source_layer": "Pozos profundos y norias de riego"
      },
      "geometry": {
        "type": "Point",
        "coordinates": [
          -103.5099575108563,
          20.47707852519957
        ]
      }
    },
    {
      "type": "Feature",
      "properties": {
        "Name": "67",
        "tessellate": -1,
        "extrude": 0,
        "visibility": -1,
        "source_layer": "Pozos profundos y norias de riego"
      },
      "geometry": {
        "type": "Point",
        "coordinates": [
          -103.5059249363096,
          20.47656573238243
        ]
      }
    },
    {
      "type": "Feature",
      "properties": {
        "Name": "68",
        "tessellate": -1,
        "extrude": 0,
        "visibility": -1,
        "source_layer": "Pozos profundos y norias de riego"
      },
      "geometry": {
        "type": "Point",
        "coordinates": [
          -103.5045925496332,
          20.47752095713049
        ]
      }
    },
    {
      "type": "Feature",
      "properties": {
        "Name": "69",
        "tessellate": -1,
        "extrude": 0,
        "visibility": -1,
        "source_layer": "Pozos profundos y norias de riego"
      },
      "geometry": {
        "type": "Point",
        "coordinates": [
          -103.4908583108614,
          20.47236720899119
        ]
      }
    },
    {
      "type": "Feature",
      "properties": {
        "Name": "70",
        "tessellate": -1,
        "extrude": 0,
        "visibility": -1,
        "source_layer": "Pozos profundos y norias de riego"
      },
      "geometry": {
        "type": "Point",
        "coordinates": [
          -103.4882385668722,
          20.47247420523887
        ]
      }
    },
    {
      "type": "Feature",
      "properties": {
        "Name": "72",
        "tessellate": -1,
        "extrude": 0,
        "visibility": -1,
        "source_layer": "Pozos profundos y norias de riego"
      },
      "geometry": {
        "type": "Point",
        "coordinates": [
          -103.4907139906515,
          20.47410203119617
        ]
      }
    },
    {
      "type": "Feature",
      "properties": {
        "Name": "73",
        "tessellate": -1,
        "extrude": 0,
        "visibility": -1,
        "source_layer": "Pozos profundos y norias de riego"
      },
      "geometry": {
        "type": "Point",
        "coordinates": [
          -103.4900814728003,
          20.47469754186764
        ]
      }
    },
    {
      "type": "Feature",
      "properties": {
        "Name": "74",
        "tessellate": -1,
        "extrude": 0,
        "visibility": -1,
        "source_layer": "Pozos profundos y norias de riego"
      },
      "geometry": {
        "type": "Point",
        "coordinates": [
          -103.4906834562701,
          20.47451523601157
        ]
      }
    },
    {
      "type": "Feature",
      "properties": {
        "Name": "75",
        "tessellate": -1,
        "extrude": 0,
        "visibility": -1,
        "source_layer": "Pozos profundos y norias de riego"
      },
      "geometry": {
        "type": "Point",
        "coordinates": [
          -103.5296209774995,
          20.47988472962917
        ]
      }
    },
    {
      "type": "Feature",
      "properties": {
        "Name": "76",
        "tessellate": -1,
        "extrude": 0,
        "visibility": -1,
        "source_layer": "Pozos profundos y norias de riego"
      },
      "geometry": {
        "type": "Point",
        "coordinates": [
          -103.4891533409427,
          20.48291889983914
        ]
      }
    },
    {
      "type": "Feature",
      "properties": {
        "Name": "77",
        "tessellate": -1,
        "extrude": 0,
        "visibility": -1,
        "source_layer": "Pozos profundos y norias de riego"
      },
      "geometry": {
        "type": "Point",
        "coordinates": [
          -103.4986644640491,
          20.47001227677237
        ]
      }
    },
    {
      "type": "Feature",
      "properties": {
        "Name": "78",
        "tessellate": -1,
        "extrude": 0,
        "visibility": -1,
        "source_layer": "Pozos profundos y norias de riego"
      },
      "geometry": {
        "type": "Point",
        "coordinates": [
          -103.499298161302,
          20.46730437513376
        ]
      }
    },
    {
      "type": "Feature",
      "properties": {
        "Name": "79",
        "tessellate": -1,
        "extrude": 0,
        "visibility": -1,
        "source_layer": "Pozos profundos y norias de riego"
      },
      "geometry": {
        "type": "Point",
        "coordinates": [
          -103.5026500811581,
          20.46142966842814
        ]
      }
    },
    {
      "type": "Feature",
      "properties": {
        "Name": "80",
        "tessellate": -1,
        "extrude": 0,
        "visibility": -1,
        "source_layer": "Pozos profundos y norias de riego"
      },
      "geometry": {
        "type": "Point",
        "coordinates": [
          -103.4948212203992,
          20.46009836468519
        ]
      }
    },
    {
      "type": "Feature",
      "properties": {
        "Name": "81",
        "tessellate": -1,
        "extrude": 0,
        "visibility": -1,
        "source_layer": "Pozos profundos y norias de riego"
      },
      "geometry": {
        "type": "Point",
        "coordinates": [
          -103.4956662175768,
          20.46786318340459
        ]
      }
    },
    {
      "type": "Feature",
      "properties": {
        "Name": "82",
        "tessellate": -1,
        "extrude": 0,
        "visibility": -1,
        "source_layer": "Pozos profundos y norias de riego"
      },
      "geometry": {
        "type": "Point",
        "coordinates": [
          -103.4954929140362,
          20.46447196254978
        ]
      }
    },
    {
      "type": "Feature",
      "properties": {
        "Name": "83",
        "tessellate": -1,
        "extrude": 0,
        "visibility": -1,
        "source_layer": "Pozos profundos y norias de riego"
      },
      "geometry": {
        "type": "Point",
        "coordinates": [
          -103.4932682863017,
          20.46328493787452
        ]
      }
    },
    {
      "type": "Feature",
      "properties": {
        "Name": "84",
        "tessellate": -1,
        "extrude": 0,
        "visibility": -1,
        "source_layer": "Pozos profundos y norias de riego"
      },
      "geometry": {
        "type": "Point",
        "coordinates": [
          -103.532733067123,
          20.4661826909339
        ]
      }
    },
    {
      "type": "Feature",
      "properties": {
        "Name": "85",
        "tessellate": -1,
        "extrude": 0,
        "visibility": -1,
        "source_layer": "Pozos profundos y norias de riego"
      },
      "geometry": {
        "type": "Point",
        "coordinates": [
          -103.5372748688138,
          20.46779028936927
        ]
      }
    },
    {
      "type": "Feature",
      "properties": {
        "Name": "86",
        "tessellate": -1,
        "extrude": 0,
        "visibility": -1,
        "source_layer": "Pozos profundos y norias de riego"
      },
      "geometry": {
        "type": "Point",
        "coordinates": [
          -103.5556875850248,
          20.50226273359738
        ]
      }
    },
    {
      "type": "Feature",
      "properties": {
        "Name": "90",
        "tessellate": -1,
        "extrude": 0,
        "visibility": -1,
        "source_layer": "Pozos profundos y norias de riego"
      },
      "geometry": {
        "type": "Point",
        "coordinates": [
          -103.5547130898674,
          20.48165765305293
        ]
      }
    },
    {
      "type": "Feature",
      "properties": {
        "Name": "91",
        "tessellate": -1,
        "extrude": 0,
        "visibility": -1,
        "source_layer": "Pozos profundos y norias de riego"
      },
      "geometry": {
        "type": "Point",
        "coordinates": [
          -103.5562291431165,
          20.46583069867152
        ]
      }
    },
    {
      "type": "Feature",
      "properties": {
        "Name": "92",
        "tessellate": -1,
        "extrude": 0,
        "visibility": -1,
        "source_layer": "Pozos profundos y norias de riego"
      },
      "geometry": {
        "type": "Point",
        "coordinates": [
          -103.5480930728047,
          20.46931984406914
        ]
      }
    },
    {
      "type": "Feature",
      "properties": {
        "Name": "93",
        "tessellate": -1,
        "extrude": 0,
        "visibility": -1,
        "source_layer": "Pozos profundos y norias de riego"
      },
      "geometry": {
        "type": "Point",
        "coordinates": [
          -103.5636359918614,
          20.47918125136695
        ]
      }
    },
    {
      "type": "Feature",
      "properties": {
        "Name": "94",
        "tessellate": -1,
        "extrude": 0,
        "visibility": -1,
        "source_layer": "Pozos profundos y norias de riego"
      },
      "geometry": {
        "type": "Point",
        "coordinates": [
          -103.5035503093626,
          20.4833212931868
        ]
      }
    },
    {
      "type": "Feature",
      "properties": {
        "Name": "95",
        "tessellate": -1,
        "extrude": 0,
        "visibility": -1,
        "source_layer": "Pozos profundos y norias de riego"
      },
      "geometry": {
        "type": "Point",
        "coordinates": [
          -103.4963363721829,
          20.4790504752028
        ]
      }
    },
    {
      "type": "Feature",
      "properties": {
        "Name": "96",
        "tessellate": -1,
        "extrude": 0,
        "visibility": -1,
        "source_layer": "Pozos profundos y norias de riego"
      },
      "geometry": {
        "type": "Point",
        "coordinates": [
          -103.506500153362,
          20.47722402226458
        ]
      }
    },
    {
      "type": "Feature",
      "properties": {
        "Name": "97",
        "tessellate": -1,
        "extrude": 0,
        "visibility": -1,
        "source_layer": "Pozos profundos y norias de riego"
      },
      "geometry": {
        "type": "Point",
        "coordinates": [
          -103.507548215003,
          20.47720519093683
        ]
      }
    },
    {
      "type": "Feature",
      "properties": {
        "Name": "98",
        "tessellate": -1,
        "extrude": 0,
        "visibility": -1,
        "source_layer": "Pozos profundos y norias de riego"
      },
      "geometry": {
        "type": "Point",
        "coordinates": [
          -103.5083206376324,
          20.47828615375701
        ]
      }
    },
    {
      "type": "Feature",
      "properties": {
        "Name": "99",
        "tessellate": -1,
        "extrude": 0,
        "visibility": -1,
        "source_layer": "Pozos profundos y norias de riego"
      },
      "geometry": {
        "type": "Point",
        "coordinates": [
          -103.5198379237406,
          20.48054403577865
        ]
      }
    },
    {
      "type": "Feature",
      "properties": {
        "Name": "100",
        "tessellate": -1,
        "extrude": 0,
        "visibility": -1,
        "source_layer": "Pozos profundos y norias de riego"
      },
      "geometry": {
        "type": "Point",
        "coordinates": [
          -103.5401124346036,
          20.43973415382357
        ]
      }
    },
    {
      "type": "Feature",
      "properties": {
        "Name": "101",
        "tessellate": -1,
        "extrude": 0,
        "visibility": -1,
        "source_layer": "Pozos profundos y norias de riego"
      },
      "geometry": {
        "type": "Point",
        "coordinates": [
          -103.5005170447316,
          20.44853063868554
        ]
      }
    },
    {
      "type": "Feature",
      "properties": {
        "Name": "102",
        "tessellate": -1,
        "extrude": 0,
        "visibility": -1,
        "source_layer": "Pozos profundos y norias de riego"
      },
      "geometry": {
        "type": "Point",
        "coordinates": [
          -103.4834734199741,
          20.44622377699562
        ]
      }
    },
    {
      "type": "Feature",
      "properties": {
        "Name": "103",
        "tessellate": -1,
        "extrude": 0,
        "visibility": -1,
        "source_layer": "Pozos profundos y norias de riego"
      },
      "geometry": {
        "type": "Point",
        "coordinates": [
          -103.5003772855665,
          20.47816974501009
        ]
      }
    },
    {
      "type": "Feature",
      "properties": {
        "Name": "104",
        "tessellate": -1,
        "extrude": 0,
        "visibility": -1,
        "source_layer": "Pozos profundos y norias de riego"
      },
      "geometry": {
        "type": "Point",
        "coordinates": [
          -103.4978630255949,
          20.47784682475148
        ]
      }
    },
    {
      "type": "Feature",
      "properties": {
        "Name": "105",
        "tessellate": -1,
        "extrude": 0,
        "visibility": -1,
        "source_layer": "Pozos profundos y norias de riego"
      },
      "geometry": {
        "type": "Point",
        "coordinates": [
          -103.4939480852866,
          20.48156375173454
        ]
      }
    },
    {
      "type": "Feature",
      "properties": {
        "Name": "106",
        "tessellate": -1,
        "extrude": 0,
        "visibility": -1,
        "source_layer": "Pozos profundos y norias de riego"
      },
      "geometry": {
        "type": "Point",
        "coordinates": [
          -103.5004840948194,
          20.48406836033965
        ]
      }
    },
    {
      "type": "Feature",
      "properties": {
        "Name": "107",
        "tessellate": -1,
        "extrude": 0,
        "visibility": -1,
        "source_layer": "Pozos profundos y norias de riego"
      },
      "geometry": {
        "type": "Point",
        "coordinates": [
          -103.4996809853422,
          20.48406157265554
        ]
      }
    },
    {
      "type": "Feature",
      "properties": {
        "Name": "108",
        "tessellate": -1,
        "extrude": 0,
        "visibility": -1,
        "source_layer": "Pozos profundos y norias de riego"
      },
      "geometry": {
        "type": "Point",
        "coordinates": [
          -103.486803814844,
          20.47495204642117
        ]
      }
    },
    {
      "type": "Feature",
      "properties": {
        "Name": "109",
        "tessellate": -1,
        "extrude": 0,
        "visibility": -1,
        "source_layer": "Pozos profundos y norias de riego"
      },
      "geometry": {
        "type": "Point",
        "coordinates": [
          -103.4991090117022,
          20.47638101934771
        ]
      }
    },
    {
      "type": "Feature",
      "properties": {
        "Name": "110",
        "tessellate": -1,
        "extrude": 0,
        "visibility": -1,
        "source_layer": "Pozos profundos y norias de riego"
      },
      "geometry": {
        "type": "Point",
        "coordinates": [
          -103.4968831492768,
          20.47997256775566
        ]
      }
    },
    {
      "type": "Feature",
      "properties": {
        "Name": "110",
        "tessellate": -1,
        "extrude": 0,
        "visibility": -1,
        "source_layer": "Pozos profundos y norias de riego"
      },
      "geometry": {
        "type": "Point",
        "coordinates": [
          -103.4973071219055,
          20.4786106517914
        ]
      }
    },
    {
      "type": "Feature",
      "properties": {
        "Name": "111",
        "tessellate": -1,
        "extrude": 0,
        "visibility": -1,
        "source_layer": "Pozos profundos y norias de riego"
      },
      "geometry": {
        "type": "Point",
        "coordinates": [
          -103.5050081219228,
          20.47425554050579
        ]
      }
    },
    {
      "type": "Feature",
      "properties": {
        "Name": "112",
        "tessellate": -1,
        "extrude": 0,
        "visibility": -1,
        "source_layer": "Pozos profundos y norias de riego"
      },
      "geometry": {
        "type": "Point",
        "coordinates": [
          -103.5073723099875,
          20.48019151258631
        ]
      }
    },
    {
      "type": "Feature",
      "properties": {
        "Name": "112",
        "tessellate": -1,
        "extrude": 0,
        "visibility": -1,
        "source_layer": "Pozos profundos y norias de riego"
      },
      "geometry": {
        "type": "Point",
        "coordinates": [
          -103.5162568317721,
          20.45992949147953
        ]
      }
    },
    {
      "type": "Feature",
      "properties": {
        "Name": "113",
        "tessellate": -1,
        "extrude": 0,
        "visibility": -1,
        "source_layer": "Pozos profundos y norias de riego"
      },
      "geometry": {
        "type": "Point",
        "coordinates": [
          -103.5558384320265,
          20.4920495964081
        ]
      }
    },
    {
      "type": "Feature",
      "properties": {
        "Name": "114",
        "tessellate": -1,
        "extrude": 0,
        "visibility": -1,
        "source_layer": "Pozos profundos y norias de riego"
      },
      "geometry": {
        "type": "Point",
        "coordinates": [
          -103.5035090208027,
          20.49077450487626
        ]
      }
    },
    {
      "type": "Feature",
      "properties": {
        "Name": "115",
        "tessellate": -1,
        "extrude": 0,
        "visibility": -1,
        "source_layer": "Pozos profundos y norias de riego"
      },
      "geometry": {
        "type": "Point",
        "coordinates": [
          -103.4876826018583,
          20.48407222544178
        ]
      }
    },
    {
      "type": "Feature",
      "properties": {
        "Name": "116",
        "tessellate": -1,
        "extrude": 0,
        "visibility": -1,
        "source_layer": "Pozos profundos y norias de riego"
      },
      "geometry": {
        "type": "Point",
        "coordinates": [
          -103.4893876603726,
          20.48489246126888
        ]
      }
    },
    {
      "type": "Feature",
      "properties": {
        "Name": "117",
        "tessellate": -1,
        "extrude": 0,
        "visibility": -1,
        "source_layer": "Pozos profundos y norias de riego"
      },
      "geometry": {
        "type": "Point",
        "coordinates": [
          -103.4911647029983,
          20.48179309755131
        ]
      }
    },
    {
      "type": "Feature",
      "properties": {
        "Name": "118-A",
        "tessellate": -1,
        "extrude": 0,
        "visibility": -1,
        "source_layer": "Pozos profundos y norias de riego"
      },
      "geometry": {
        "type": "Point",
        "coordinates": [
          -103.4804882649422,
          20.48738070980345
        ]
      }
    },
    {
      "type": "Feature",
      "properties": {
        "Name": "118-B",
        "tessellate": -1,
        "extrude": 0,
        "visibility": -1,
        "source_layer": "Pozos profundos y norias de riego"
      },
      "geometry": {
        "type": "Point",
        "coordinates": [
          -103.4800614573648,
          20.48693583260344
        ]
      }
    },
    {
      "type": "Feature",
      "properties": {
        "Name": "119",
        "tessellate": -1,
        "extrude": 0,
        "visibility": -1,
        "source_layer": "Pozos profundos y norias de riego"
      },
      "geometry": {
        "type": "Point",
        "coordinates": [
          -103.4952430269279,
          20.48035935333229
        ]
      }
    },
    {
      "type": "Feature",
      "properties": {
        "Name": "121",
        "tessellate": -1,
        "extrude": 0,
        "visibility": -1,
        "source_layer": "Pozos profundos y norias de riego"
      },
      "geometry": {
        "type": "Point",
        "coordinates": [
          -103.4863906301377,
          20.48794379324361
        ]
      }
    },
    {
      "type": "Feature",
      "properties": {
        "Name": "122",
        "tessellate": -1,
        "extrude": 0,
        "visibility": -1,
        "source_layer": "Pozos profundos y norias de riego"
      },
      "geometry": {
        "type": "Point",
        "coordinates": [
          -103.4801970327396,
          20.48525556830777
        ]
      }
    },
    {
      "type": "Feature",
      "properties": {
        "Name": "123",
        "tessellate": -1,
        "extrude": 0,
        "visibility": -1,
        "source_layer": "Pozos profundos y norias de riego"
      },
      "geometry": {
        "type": "Point",
        "coordinates": [
          -103.4866911790463,
          20.47451756999784
        ]
      }
    },
    {
      "type": "Feature",
      "properties": {
        "Name": "124",
        "tessellate": -1,
        "extrude": 0,
        "visibility": -1,
        "source_layer": "Pozos profundos y norias de riego"
      },
      "geometry": {
        "type": "Point",
        "coordinates": [
          -103.4874066794082,
          20.47373018853446
        ]
      }
    },
    {
      "type": "Feature",
      "properties": {
        "Name": "125",
        "tessellate": -1,
        "extrude": 0,
        "visibility": -1,
        "source_layer": "Pozos profundos y norias de riego"
      },
      "geometry": {
        "type": "Point",
        "coordinates": [
          -103.4876652099547,
          20.47506169663802
        ]
      }
    },
    {
      "type": "Feature",
      "properties": {
        "Name": "126",
        "tessellate": -1,
        "extrude": 0,
        "visibility": -1,
        "source_layer": "Pozos profundos y norias de riego"
      },
      "geometry": {
        "type": "Point",
        "coordinates": [
          -103.4887173468902,
          20.47730501444006
        ]
      }
    },
    {
      "type": "Feature",
      "properties": {
        "Name": "127",
        "tessellate": -1,
        "extrude": 0,
        "visibility": -1,
        "source_layer": "Pozos profundos y norias de riego"
      },
      "geometry": {
        "type": "Point",
        "coordinates": [
          -103.4893947080275,
          20.47727732888129
        ]
      }
    },
    {
      "type": "Feature",
      "properties": {
        "Name": "128",
        "tessellate": -1,
        "extrude": 0,
        "visibility": -1,
        "source_layer": "Pozos profundos y norias de riego"
      },
      "geometry": {
        "type": "Point",
        "coordinates": [
          -103.4900045884695,
          20.4766963704206
        ]
      }
    },
    {
      "type": "Feature",
      "properties": {
        "Name": "129",
        "tessellate": -1,
        "extrude": 0,
        "visibility": -1,
        "source_layer": "Pozos profundos y norias de riego"
      },
      "geometry": {
        "type": "Point",
        "coordinates": [
          -103.4913220145682,
          20.47617945347887
        ]
      }
    },
    {
      "type": "Feature",
      "properties": {
        "Name": "130",
        "tessellate": -1,
        "extrude": 0,
        "visibility": -1,
        "source_layer": "Pozos profundos y norias de riego"
      },
      "geometry": {
        "type": "Point",
        "coordinates": [
          -103.4914513673562,
          20.47583001628835
        ]
      }
    },
    {
      "type": "Feature",
      "properties": {
        "Name": "131",
        "tessellate": -1,
        "extrude": 0,
        "visibility": -1,
        "source_layer": "Pozos profundos y norias de riego"
      },
      "geometry": {
        "type": "Point",
        "coordinates": [
          -103.4918104208168,
          20.47440906009864
        ]
      }
    },
    {
      "type": "Feature",
      "properties": {
        "Name": "133",
        "tessellate": -1,
        "extrude": 0,
        "visibility": -1,
        "source_layer": "Pozos profundos y norias de riego"
      },
      "geometry": {
        "type": "Point",
        "coordinates": [
          -103.4887992789279,
          20.47588396777371
        ]
      }
    },
    {
      "type": "Feature",
      "properties": {
        "Name": "134",
        "tessellate": -1,
        "extrude": 0,
        "visibility": -1,
        "source_layer": "Pozos profundos y norias de riego"
      },
      "geometry": {
        "type": "Point",
        "coordinates": [
          -103.4884311944853,
          20.47411282202742
        ]
      }
    },
    {
      "type": "Feature",
      "properties": {
        "Name": "135",
        "tessellate": -1,
        "extrude": 0,
        "visibility": -1,
        "source_layer": "Pozos profundos y norias de riego"
      },
      "geometry": {
        "type": "Point",
        "coordinates": [
          -103.4995807700087,
          20.48179690349178
        ]
      }
    },
    {
      "type": "Feature",
      "properties": {
        "Name": "136",
        "tessellate": -1,
        "extrude": 0,
        "visibility": -1,
        "source_layer": "Pozos profundos y norias de riego"
      },
      "geometry": {
        "type": "Point",
        "coordinates": [
          -103.4995592618405,
          20.48090207231098
        ]
      }
    },
    {
      "type": "Feature",
      "properties": {
        "Name": "137",
        "tessellate": -1,
        "extrude": 0,
        "visibility": -1,
        "source_layer": "Pozos profundos y norias de riego"
      },
      "geometry": {
        "type": "Point",
        "coordinates": [
          -103.5003284029751,
          20.48094492285697
        ]
      }
    },
    {
      "type": "Feature",
      "properties": {
        "Name": "138",
        "tessellate": -1,
        "extrude": 0,
        "visibility": -1,
        "source_layer": "Pozos profundos y norias de riego"
      },
      "geometry": {
        "type": "Point",
        "coordinates": [
          -103.5011547346505,
          20.48160163183213
        ]
      }
    },
    {
      "type": "Feature",
      "properties": {
        "Name": "139",
        "tessellate": -1,
        "extrude": 0,
        "visibility": -1,
        "source_layer": "Pozos profundos y norias de riego"
      },
      "geometry": {
        "type": "Point",
        "coordinates": [
          -103.5025204141993,
          20.48119285532455
        ]
      }
    },
    {
      "type": "Feature",
      "properties": {
        "Name": "140",
        "tessellate": -1,
        "extrude": 0,
        "visibility": -1,
        "source_layer": "Pozos profundos y norias de riego"
      },
      "geometry": {
        "type": "Point",
        "coordinates": [
          -103.5063545037795,
          20.47988134586893
        ]
      }
    },
    {
      "type": "Feature",
      "properties": {
        "Name": "141",
        "tessellate": -1,
        "extrude": 0,
        "visibility": -1,
        "source_layer": "Pozos profundos y norias de riego"
      },
      "geometry": {
        "type": "Point",
        "coordinates": [
          -103.4984405268641,
          20.48018017032705
        ]
      }
    },
    {
      "type": "Feature",
      "properties": {
        "Name": "143",
        "tessellate": -1,
        "extrude": 0,
        "visibility": -1,
        "source_layer": "Pozos profundos y norias de riego"
      },
      "geometry": {
        "type": "Point",
        "coordinates": [
          -103.5081005708602,
          20.47923448261539
        ]
      }
    }
  ]
}