{
  "type": "FeatureCollection",
  "name": "decimal_tlajomulco",
  "features": [
    {
      "type": "Feature",
      "properties": {
        "Name": "870719",
        "styleUrl": "#m_ylw-pushpin",
        "source_layer": "REPDA Descarga",
        "source_document": "REPDA.csv"
      },
      "geometry": {
        "type": "Point",
        "coordinates": [
          -103.22187277777778,
          20.49643138888889
        ]
      }
    },
    {
      "type": "Feature",
      "properties": {
        "Name": "08JAL162304/12EKOC25",
        "styleUrl": "#m_ylw-pushpin",
        "source_layer": "REPDA Descarga",
        "source_document": "REPDA.csv"
      },
      "geometry": {
        "type": "Point",
        "coordinates": [
          -103.2713888888889,
          20.480055555555555
        ]
      }
    },
    {
      "type": "Feature",
      "properties": {
        "Name": "08JAL162292/12EKOC25",
        "styleUrl": "#m_ylw-pushpin",
        "source_layer": "REPDA Descarga",
        "source_document": "REPDA.csv"
      },
      "geometry": {
        "type": "Point",
        "coordinates": [
          -103.48683333333334,
          20.527444444444445
        ]
      }
    },
    {
      "type": "Feature",
      "properties": {
        "Name": "08JAL162294/12EQOC25",
        "styleUrl": "#m_ylw-pushpin",
        "source_layer": "REPDA Descarga",
        "source_document": "REPDA.csv"
      },
      "geometry": {
        "type": "Point",
        "coordinates": [
          -103.49325,
          20.574305555555554
        ]
      }
    },
    {
      "type": "Feature",
      "properties": {
        "Name": "08JAL162295/12EMOC25",
        "styleUrl": "#m_ylw-pushpin",
        "source_layer": "REPDA Descarga",
        "source_document": "REPDA.csv"
      },
      "geometry": {
        "type": "Point",
        "coordinates": [
          -103.48494444444445,
          20.48413888888889
        ]
      }
    },
    {
      "type": "Feature",
      "properties": {
        "Name": "08JAL162270/12FQDA25",
        "styleUrl": "#m_ylw-pushpin",
        "source_layer": "REPDA Descarga",
        "source_document": "REPDA.csv"
      },
      "geometry": {
        "type": "Point",
        "coordinates": [
          -103.26633333333334,
          20.48902777777778
        ]
      }
    },
    {
      "type": "Feature",
      "properties": {
        "Name": "08JAL162270/12FQDA25",
        "styleUrl": "#m_ylw-pushpin",
        "source_layer": "REPDA Descarga",
        "source_document": "REPDA.csv"
      },
      "geometry": {
        "type": "Point",
        "coordinates": [
          -103.26458333333333,
          20.49041666666667
        ]
      }
    },
    {
      "type": "Feature",
      "properties": {
        "Name": "866146",
        "styleUrl": "#m_ylw-pushpin",
        "source_layer": "REPDA Descarga",
        "source_document": "REPDA.csv"
      },
      "geometry": {
        "type": "Point",
        "coordinates": [
          -103.41559000000001,
          20.469214444444443
        ]
      }
    },
    {
      "type": "Feature",
      "properties": {
        "Name": "08JAL162277/12EQDA25",
        "styleUrl": "#m_ylw-pushpin",
        "source_layer": "REPDA Descarga",
        "source_document": "REPDA.csv"
      },
      "geometry": {
        "type": "Point",
        "coordinates": [
          -103.46005555555556,
          20.568527777777778
        ]
      }
    },
    {
      "type": "Feature",
      "properties": {
        "Name": "859856",
        "styleUrl": "#m_ylw-pushpin",
        "source_layer": "REPDA Descarga",
        "source_document": "REPDA.csv"
      },
      "geometry": {
        "type": "Point",
        "coordinates": [
          -103.56825055555555,
          20.49583638888889
        ]
      }
    },
    {
      "type": "Feature",
      "properties": {
        "Name": "860747",
        "styleUrl": "#m_ylw-pushpin",
        "source_layer": "REPDA Descarga",
        "source_document": "REPDA.csv"
      },
      "geometry": {
        "type": "Point",
        "coordinates": [
          -103.45029805555556,
          20.578620833333332
        ]
      }
    },
    {
      "type": "Feature",
      "properties": {
        "Name": "859074",
        "styleUrl": "#m_ylw-pushpin",
        "source_layer": "REPDA Descarga",
        "source_document": "REPDA.csv"
      },
      "geometry": {
        "type": "Point",
        "coordinates": [
          -103.2549175,
          20.487390833333333
        ]
      }
    },
    {
      "type": "Feature",
      "properties": {
        "Name": "850633",
        "styleUrl": "#m_ylw-pushpin",
        "source_layer": "REPDA Descarga",
        "source_document": "REPDA.csv"
      },
      "geometry": {
        "type": "Point",
        "coordinates": [
          -103.27536722222221,
          20.49768527777778
        ]
      }
    },
    {
      "type": "Feature",
      "properties": {
        "Name": "843113",
        "styleUrl": "#m_ylw-pushpin",
        "source_layer": "REPDA Descarga",
        "source_document": "REPDA.csv"
      },
      "geometry": {
        "type": "Point",
        "coordinates": [
          -103.50801805555555,
          20.489594722222222
        ]
      }
    },
    {
      "type": "Feature",
      "properties": {
        "Name": "843113",
        "styleUrl": "#m_ylw-pushpin",
        "source_layer": "REPDA Descarga",
        "source_document": "REPDA.csv"
      },
      "geometry": {
        "type": "Point",
        "coordinates": [
          -103.51826444444444,
          20.482241944444443
        ]
      }
    },
    {
      "type": "Feature",
      "properties": {
        "Name": "842926",
        "styleUrl": "#m_ylw-pushpin",
        "source_layer": "REPDA Descarga",
        "source_document": "REPDA.csv"
      },
      "geometry": {
        "type": "Point",
        "coordinates": [
          -103.44243833333334,
          20.586235555555554
        ]
      }
    },
    {
      "type": "Feature",
      "properties": {
        "Name": "847412",
        "styleUrl": "#m_ylw-pushpin",
        "source_layer": "REPDA Descarga",
        "source_document": "REPDA.csv"
      },
      "geometry": {
        "type": "Point",
        "coordinates": [
          -103.24200055555556,
          20.433141111111112
        ]
      }
    },
    {
      "type": "Feature",
      "properties": {
        "Name": "845793",
        "styleUrl": "#m_ylw-pushpin",
        "source_layer": "REPDA Descarga",
        "source_document": "REPDA.csv"
      },
      "geometry": {
        "type": "Point",
        "coordinates": [
          -103.24911305555555,
          20.433166111111113
        ]
      }
    },
    {
      "type": "Feature",
      "properties": {
        "Name": "844841",
        "styleUrl": "#m_ylw-pushpin",
        "source_layer": "REPDA Descarga",
        "source_document": "REPDA.csv"
      },
      "geometry": {
        "type": "Point",
        "coordinates": [
          -103.45026361111111,
          20.578893333333333
        ]
      }
    },
    {
      "type": "Feature",
      "properties": {
        "Name": "843345",
        "styleUrl": "#m_ylw-pushpin",
        "source_layer": "REPDA Descarga",
        "source_document": "REPDA.csv"
      },
      "geometry": {
        "type": "Point",
        "coordinates": [
          -103.50233194444445,
          20.465039166666667
        ]
      }
    },
    {
      "type": "Feature",
      "properties": {
        "Name": "839478",
        "styleUrl": "#m_ylw-pushpin",
        "source_layer": "REPDA Descarga",
        "source_document": "REPDA.csv"
      },
      "geometry": {
        "type": "Point",
        "coordinates": [
          -103.51481111111111,
          20.461301111111112
        ]
      }
    },
    {
      "type": "Feature",
      "properties": {
        "Name": "810700",
        "styleUrl": "#m_ylw-pushpin",
        "source_layer": "REPDA Descarga",
        "source_document": "REPDA.csv"
      },
      "geometry": {
        "type": "Point",
        "coordinates": [
          -103.48790083333333,
          20.56111361111111
        ]
      }
    },
    {
      "type": "Feature",
      "properties": {
        "Name": "835749",
        "styleUrl": "#m_ylw-pushpin",
        "source_layer": "REPDA Descarga",
        "source_document": "REPDA.csv"
      },
      "geometry": {
        "type": "Point",
        "coordinates": [
          -103.24166611111112,
          20.462500555555554
        ]
      }
    },
    {
      "type": "Feature",
      "properties": {
        "Name": "825805",
        "styleUrl": "#m_ylw-pushpin",
        "source_layer": "REPDA Descarga",
        "source_document": "REPDA.csv"
      },
      "geometry": {
        "type": "Point",
        "coordinates": [
          -103.47006166666667,
          20.445153333333334
        ]
      }
    },
    {
      "type": "Feature",
      "properties": {
        "Name": "822917",
        "styleUrl": "#m_ylw-pushpin",
        "source_layer": "REPDA Descarga",
        "source_document": "REPDA.csv"
      },
      "geometry": {
        "type": "Point",
        "coordinates": [
          -103.38663916666667,
          20.556196944444444
        ]
      }
    },
    {
      "type": "Feature",
      "properties": {
        "Name": "811740",
        "styleUrl": "#m_ylw-pushpin",
        "source_layer": "REPDA Descarga",
        "source_document": "REPDA.csv"
      },
      "geometry": {
        "type": "Point",
        "coordinates": [
          -103.46818777777779,
          20.55355972222222
        ]
      }
    },
    {
      "type": "Feature",
      "properties": {
        "Name": "08JAL161464/12FMDA18",
        "styleUrl": "#m_ylw-pushpin",
        "source_layer": "REPDA Descarga",
        "source_document": "REPDA.csv"
      },
      "geometry": {
        "type": "Point",
        "coordinates": [
          -103.24547222222222,
          20.436333333333334
        ]
      }
    },
    {
      "type": "Feature",
      "properties": {
        "Name": "08JAL161108/12EMDA18",
        "styleUrl": "#m_ylw-pushpin",
        "source_layer": "REPDA Descarga",
        "source_document": "REPDA.csv"
      },
      "geometry": {
        "type": "Point",
        "coordinates": [
          -103.27241666666667,
          20.495916666666666
        ]
      }
    },
    {
      "type": "Feature",
      "properties": {
        "Name": "08JAL154619/12GMOC13",
        "styleUrl": "#m_ylw-pushpin",
        "source_layer": "REPDA Descarga",
        "source_document": "REPDA.csv"
      },
      "geometry": {
        "type": "Point",
        "coordinates": [
          -103.29638888888888,
          20.44638888888889
        ]
      }
    },
    {
      "type": "Feature",
      "properties": {
        "Name": "08JAL159923/12FQDA17",
        "styleUrl": "#m_ylw-pushpin",
        "source_layer": "REPDA Descarga",
        "source_document": "REPDA.csv"
      },
      "geometry": {
        "type": "Point",
        "coordinates": [
          -103.27294444444445,
          20.503722222222223
        ]
      }
    },
    {
      "type": "Feature",
      "properties": {
        "Name": "08JAL160094/12ERDA17",
        "styleUrl": "#m_ylw-pushpin",
        "source_layer": "REPDA Descarga",
        "source_document": "REPDA.csv"
      },
      "geometry": {
        "type": "Point",
        "coordinates": [
          -103.46766666666667,
          20.533972222222225
        ]
      }
    },
    {
      "type": "Feature",
      "properties": {
        "Name": "08JAL160449/12FMDA18",
        "styleUrl": "#m_ylw-pushpin",
        "source_layer": "REPDA Descarga",
        "source_document": "REPDA.csv"
      },
      "geometry": {
        "type": "Point",
        "coordinates": [
          -103.42916666666667,
          20.447777777777777
        ]
      }
    },
    {
      "type": "Feature",
      "properties": {
        "Name": "08JAL160049/12FQDA17",
        "styleUrl": "#m_ylw-pushpin",
        "source_layer": "REPDA Descarga",
        "source_document": "REPDA.csv"
      },
      "geometry": {
        "type": "Point",
        "coordinates": [
          -103.52119444444445,
          20.44425
        ]
      }
    },
    {
      "type": "Feature",
      "properties": {
        "Name": "08JAL159983/12FMDA17",
        "styleUrl": "#m_ylw-pushpin",
        "source_layer": "REPDA Descarga",
        "source_document": "REPDA.csv"
      },
      "geometry": {
        "type": "Point",
        "coordinates": [
          -103.5393611111111,
          20.481277777777777
        ]
      }
    },
    {
      "type": "Feature",
      "properties": {
        "Name": "JAL153540",
        "styleUrl": "#m_ylw-pushpin",
        "source_layer": "REPDA Descarga",
        "source_document": "REPDA.csv"
      },
      "geometry": {
        "type": "Point",
        "coordinates": [
          -103.23566833333334,
          20.49083361111111
        ]
      }
    },
    {
      "type": "Feature",
      "properties": {
        "Name": "08JAL157023/12EMDA17",
        "styleUrl": "#m_ylw-pushpin",
        "source_layer": "REPDA Descarga",
        "source_document": "REPDA.csv"
      },
      "geometry": {
        "type": "Point",
        "coordinates": [
          -103.45361111111112,
          20.456166666666665
        ]
      }
    },
    {
      "type": "Feature",
      "properties": {
        "Name": "JAL156968",
        "styleUrl": "#m_ylw-pushpin",
        "source_layer": "REPDA Descarga",
        "source_document": "REPDA.csv"
      },
      "geometry": {
        "type": "Point",
        "coordinates": [
          -103.28333611111111,
          20.50463638888889
        ]
      }
    },
    {
      "type": "Feature",
      "properties": {
        "Name": "JAL156968",
        "styleUrl": "#m_ylw-pushpin",
        "source_layer": "REPDA Descarga",
        "source_document": "REPDA.csv"
      },
      "geometry": {
        "type": "Point",
        "coordinates": [
          -103.28592916666666,
          20.505711944444446
        ]
      }
    },
    {
      "type": "Feature",
      "properties": {
        "Name": "08JAL156825/12FMDA17",
        "styleUrl": "#m_ylw-pushpin",
        "source_layer": "REPDA Descarga",
        "source_document": "REPDA.csv"
      },
      "geometry": {
        "type": "Point",
        "coordinates": [
          -103.25991666666667,
          20.492611111111113
        ]
      }
    },
    {
      "type": "Feature",
      "properties": {
        "Name": "08JAL159924/12ERDA17",
        "styleUrl": "#m_ylw-pushpin",
        "source_layer": "REPDA Descarga",
        "source_document": "REPDA.csv"
      },
      "geometry": {
        "type": "Point",
        "coordinates": [
          -103.48441666666666,
          20.487583333333333
        ]
      }
    },
    {
      "type": "Feature",
      "properties": {
        "Name": "08JAL156826/12EMDA17",
        "styleUrl": "#m_ylw-pushpin",
        "source_layer": "REPDA Descarga",
        "source_document": "REPDA.csv"
      },
      "geometry": {
        "type": "Point",
        "coordinates": [
          -103.49583333333334,
          20.573694444444445
        ]
      }
    },
    {
      "type": "Feature",
      "properties": {
        "Name": "08JAL156879/12EMDA17",
        "styleUrl": "#m_ylw-pushpin",
        "source_layer": "REPDA Descarga",
        "source_document": "REPDA.csv"
      },
      "geometry": {
        "type": "Point",
        "coordinates": [
          -103.40205555555556,
          20.430333333333333
        ]
      }
    },
    {
      "type": "Feature",
      "properties": {
        "Name": "08JAL154601/12FMDA16",
        "styleUrl": "#m_ylw-pushpin",
        "source_layer": "REPDA Descarga",
        "source_document": "REPDA.csv"
      },
      "geometry": {
        "type": "Point",
        "coordinates": [
          -103.44305555555556,
          20.578333333333333
        ]
      }
    },
    {
      "type": "Feature",
      "properties": {
        "Name": "08JAL156212/12ERDA16",
        "styleUrl": "#m_ylw-pushpin",
        "source_layer": "REPDA Descarga",
        "source_document": "REPDA.csv"
      },
      "geometry": {
        "type": "Point",
        "coordinates": [
          -103.43555555555555,
          20.460277777777776
        ]
      }
    },
    {
      "type": "Feature",
      "properties": {
        "Name": "08JAL156212/12ERDA16",
        "styleUrl": "#m_ylw-pushpin",
        "source_layer": "REPDA Descarga",
        "source_document": "REPDA.csv"
      },
      "geometry": {
        "type": "Point",
        "coordinates": [
          -103.44611111111111,
          20.461111111111112
        ]
      }
    },
    {
      "type": "Feature",
      "properties": {
        "Name": "08JAL156212/12ERDA16",
        "styleUrl": "#m_ylw-pushpin",
        "source_layer": "REPDA Descarga",
        "source_document": "REPDA.csv"
      },
      "geometry": {
        "type": "Point",
        "coordinates": [
          -103.44694444444445,
          20.460277777777776
        ]
      }
    },
    {
      "type": "Feature",
      "properties": {
        "Name": "08JAL156212/12ERDA16",
        "styleUrl": "#m_ylw-pushpin",
        "source_layer": "REPDA Descarga",
        "source_document": "REPDA.csv"
      },
      "geometry": {
        "type": "Point",
        "coordinates": [
          -103.44555555555556,
          20.461111111111112
        ]
      }
    },
    {
      "type": "Feature",
      "properties": {
        "Name": "08JAL156212/12ERDA16",
        "styleUrl": "#m_ylw-pushpin",
        "source_layer": "REPDA Descarga",
        "source_document": "REPDA.csv"
      },
      "geometry": {
        "type": "Point",
        "coordinates": [
          -103.44638888888889,
          20.460833333333333
        ]
      }
    },
    {
      "type": "Feature",
      "properties": {
        "Name": "08JAL156212/12ERDA16",
        "styleUrl": "#m_ylw-pushpin",
        "source_layer": "REPDA Descarga",
        "source_document": "REPDA.csv"
      },
      "geometry": {
        "type": "Point",
        "coordinates": [
          -103.44666666666667,
          20.460555555555555
        ]
      }
    },
    {
      "type": "Feature",
      "properties": {
        "Name": "08JAL155941/12EMDA16",
        "styleUrl": "#m_ylw-pushpin",
        "source_layer": "REPDA Descarga",
        "source_document": "REPDA.csv"
      },
      "geometry": {
        "type": "Point",
        "coordinates": [
          -103.49055555555556,
          20.566972222222223
        ]
      }
    },
    {
      "type": "Feature",
      "properties": {
        "Name": "08JAL155718/12ERDA15",
        "styleUrl": "#m_ylw-pushpin",
        "source_layer": "REPDA Descarga",
        "source_document": "REPDA.csv"
      },
      "geometry": {
        "type": "Point",
        "coordinates": [
          -103.44930555555555,
          20.522333333333332
        ]
      }
    },
    {
      "type": "Feature",
      "properties": {
        "Name": "JAL150885",
        "styleUrl": "#m_ylw-pushpin",
        "source_layer": "REPDA Descarga",
        "source_document": "REPDA.csv"
      },
      "geometry": {
        "type": "Point",
        "coordinates": [
          -103.56611138888888,
          20.48944611111111
        ]
      }
    },
    {
      "type": "Feature",
      "properties": {
        "Name": "JAL150885",
        "styleUrl": "#m_ylw-pushpin",
        "source_layer": "REPDA Descarga",
        "source_document": "REPDA.csv"
      },
      "geometry": {
        "type": "Point",
        "coordinates": [
          -103.56388916666667,
          20.49111277777778
        ]
      }
    },
    {
      "type": "Feature",
      "properties": {
        "Name": "08JAL150190/12EMOC15",
        "styleUrl": "#m_ylw-pushpin",
        "source_layer": "REPDA Descarga",
        "source_document": "REPDA.csv"
      },
      "geometry": {
        "type": "Point",
        "coordinates": [
          -103.50055555555555,
          20.46611111111111
        ]
      }
    },
    {
      "type": "Feature",
      "properties": {
        "Name": "JAL155530",
        "styleUrl": "#m_ylw-pushpin",
        "source_layer": "REPDA Descarga",
        "source_document": "REPDA.csv"
      },
      "geometry": {
        "type": "Point",
        "coordinates": [
          -103.44230833333334,
          20.586951944444444
        ]
      }
    },
    {
      "type": "Feature",
      "properties": {
        "Name": "JAL155408",
        "styleUrl": "#m_ylw-pushpin",
        "source_layer": "REPDA Descarga",
        "source_document": "REPDA.csv"
      },
      "geometry": {
        "type": "Point",
        "coordinates": [
          -103.3939725,
          20.43680861111111
        ]
      }
    },
    {
      "type": "Feature",
      "properties": {
        "Name": "JAL155408",
        "styleUrl": "#m_ylw-pushpin",
        "source_layer": "REPDA Descarga",
        "source_document": "REPDA.csv"
      },
      "geometry": {
        "type": "Point",
        "coordinates": [
          -103.3944725,
          20.43230861111111
        ]
      }
    },
    {
      "type": "Feature",
      "properties": {
        "Name": "08JAL155095/12HAOC15",
        "styleUrl": "#m_ylw-pushpin",
        "source_layer": "REPDA Descarga",
        "source_document": "REPDA.csv"
      },
      "geometry": {
        "type": "Point",
        "coordinates": [
          -103.32472222222222,
          20.784722222222225
        ]
      }
    },
    {
      "type": "Feature",
      "properties": {
        "Name": "08JAL155095/12HAOC15",
        "styleUrl": "#m_ylw-pushpin",
        "source_layer": "REPDA Descarga",
        "source_document": "REPDA.csv"
      },
      "geometry": {
        "type": "Point",
        "coordinates": [
          -103.25083333333333,
          20.50888888888889
        ]
      }
    },
    {
      "type": "Feature",
      "properties": {
        "Name": "08JAL155095/12HAOC15",
        "styleUrl": "#m_ylw-pushpin",
        "source_layer": "REPDA Descarga",
        "source_document": "REPDA.csv"
      },
      "geometry": {
        "type": "Point",
        "coordinates": [
          -103.41722222222222,
          20.776944444444442
        ]
      }
    },
    {
      "type": "Feature",
      "properties": {
        "Name": "08JAL155520/12HMOC14",
        "styleUrl": "#m_ylw-pushpin",
        "source_layer": "REPDA Descarga",
        "source_document": "REPDA.csv"
      },
      "geometry": {
        "type": "Point",
        "coordinates": [
          -103.31030555555556,
          20.406
        ]
      }
    },
    {
      "type": "Feature",
      "properties": {
        "Name": "08JAL155520/12HMOC14",
        "styleUrl": "#m_ylw-pushpin",
        "source_layer": "REPDA Descarga",
        "source_document": "REPDA.csv"
      },
      "geometry": {
        "type": "Point",
        "coordinates": [
          -103.31422222222221,
          20.40636111111111
        ]
      }
    },
    {
      "type": "Feature",
      "properties": {
        "Name": "08JAL155520/12HMOC14",
        "styleUrl": "#m_ylw-pushpin",
        "source_layer": "REPDA Descarga",
        "source_document": "REPDA.csv"
      },
      "geometry": {
        "type": "Point",
        "coordinates": [
          -103.31755555555556,
          20.40733333333333
        ]
      }
    },
    {
      "type": "Feature",
      "properties": {
        "Name": "JAL131574",
        "styleUrl": "#m_ylw-pushpin",
        "source_layer": "REPDA Descarga",
        "source_document": "REPDA.csv"
      },
      "geometry": {
        "type": "Point",
        "coordinates": [
          -103.22555555555556,
          20.497778333333333
        ]
      }
    },
    {
      "type": "Feature",
      "properties": {
        "Name": "JAL131574",
        "styleUrl": "#m_ylw-pushpin",
        "source_layer": "REPDA Descarga",
        "source_document": "REPDA.csv"
      },
      "geometry": {
        "type": "Point",
        "coordinates": [
          -103.2242225,
          20.495695
        ]
      }
    },
    {
      "type": "Feature",
      "properties": {
        "Name": "JAL155076",
        "styleUrl": "#m_ylw-pushpin",
        "source_layer": "REPDA Descarga",
        "source_document": "REPDA.csv"
      },
      "geometry": {
        "type": "Point",
        "coordinates": [
          -103.48769472222223,
          20.569030555555557
        ]
      }
    },
    {
      "type": "Feature",
      "properties": {
        "Name": "JAL153414",
        "styleUrl": "#m_ylw-pushpin",
        "source_layer": "REPDA Descarga",
        "source_document": "REPDA.csv"
      },
      "geometry": {
        "type": "Point",
        "coordinates": [
          -103.42772277777779,
          20.538750555555556
        ]
      }
    },
    {
      "type": "Feature",
      "properties": {
        "Name": "08JAL153942/12EMOC13",
        "styleUrl": "#m_ylw-pushpin",
        "source_layer": "REPDA Descarga",
        "source_document": "REPDA.csv"
      },
      "geometry": {
        "type": "Point",
        "coordinates": [
          -103.47972222222222,
          20.572277777777778
        ]
      }
    },
    {
      "type": "Feature",
      "properties": {
        "Name": "08JAL154482/12CMGC13",
        "styleUrl": "#m_ylw-pushpin",
        "source_layer": "REPDA Descarga",
        "source_document": "REPDA.csv"
      },
      "geometry": {
        "type": "Point",
        "coordinates": [
          -103.47558333333333,
          20.538555555555558
        ]
      }
    },
    {
      "type": "Feature",
      "properties": {
        "Name": "JAL151928",
        "styleUrl": "#m_ylw-pushpin",
        "source_layer": "REPDA Descarga",
        "source_document": "REPDA.csv"
      },
      "geometry": {
        "type": "Point",
        "coordinates": [
          -103.23138944444445,
          20.482223055555554
        ]
      }
    },
    {
      "type": "Feature",
      "properties": {
        "Name": "JAL151928",
        "styleUrl": "#m_ylw-pushpin",
        "source_layer": "REPDA Descarga",
        "source_document": "REPDA.csv"
      },
      "geometry": {
        "type": "Point",
        "coordinates": [
          -103.2307,
          20.4845925
        ]
      }
    },
    {
      "type": "Feature",
      "properties": {
        "Name": "JAL154297",
        "styleUrl": "#m_ylw-pushpin",
        "source_layer": "REPDA Descarga",
        "source_document": "REPDA.csv"
      },
      "geometry": {
        "type": "Point",
        "coordinates": [
          -103.24222222222222,
          20.488817222222224
        ]
      }
    },
    {
      "type": "Feature",
      "properties": {
        "Name": "08JAL151923/12FMOC13",
        "styleUrl": "#m_ylw-pushpin",
        "source_layer": "REPDA Descarga",
        "source_document": "REPDA.csv"
      },
      "geometry": {
        "type": "Point",
        "coordinates": [
          -103.41300000000001,
          20.43425
        ]
      }
    },
    {
      "type": "Feature",
      "properties": {
        "Name": "08JAL152390/12FMOC12",
        "styleUrl": "#m_ylw-pushpin",
        "source_layer": "REPDA Descarga",
        "source_document": "REPDA.csv"
      },
      "geometry": {
        "type": "Point",
        "coordinates": [
          -103.5786111111111,
          20.499722222222225
        ]
      }
    },
    {
      "type": "Feature",
      "properties": {
        "Name": "08JAL153995/12FMOC13",
        "styleUrl": "#m_ylw-pushpin",
        "source_layer": "REPDA Descarga",
        "source_document": "REPDA.csv"
      },
      "geometry": {
        "type": "Point",
        "coordinates": [
          -103.49180555555556,
          20.49013888888889
        ]
      }
    },
    {
      "type": "Feature",
      "properties": {
        "Name": "08JAL153995/12FMOC13",
        "styleUrl": "#m_ylw-pushpin",
        "source_layer": "REPDA Descarga",
        "source_document": "REPDA.csv"
      },
      "geometry": {
        "type": "Point",
        "coordinates": [
          -103.4925,
          20.48888888888889
        ]
      }
    },
    {
      "type": "Feature",
      "properties": {
        "Name": "08JAL153441/12IMDA12",
        "styleUrl": "#m_ylw-pushpin",
        "source_layer": "REPDA Descarga",
        "source_document": "REPDA.csv"
      },
      "geometry": {
        "type": "Point",
        "coordinates": [
          -103.485,
          20.547777777777778
        ]
      }
    },
    {
      "type": "Feature",
      "properties": {
        "Name": "08JAL153441/12IMDA12",
        "styleUrl": "#m_ylw-pushpin",
        "source_layer": "REPDA Descarga",
        "source_document": "REPDA.csv"
      },
      "geometry": {
        "type": "Point",
        "coordinates": [
          -103.48486111111112,
          20.54788888888889
        ]
      }
    },
    {
      "type": "Feature",
      "properties": {
        "Name": "JAL132164",
        "styleUrl": "#m_ylw-pushpin",
        "source_layer": "REPDA Descarga",
        "source_document": "REPDA.csv"
      },
      "geometry": {
        "type": "Point",
        "coordinates": [
          -103.44166722222222,
          20.59166972222222
        ]
      }
    },
    {
      "type": "Feature",
      "properties": {
        "Name": "08JAL152377/12FMOC12",
        "styleUrl": "#m_ylw-pushpin",
        "source_layer": "REPDA Descarga",
        "source_document": "REPDA.csv"
      },
      "geometry": {
        "type": "Point",
        "coordinates": [
          -103.26911111111112,
          20.499472222222224
        ]
      }
    },
    {
      "type": "Feature",
      "properties": {
        "Name": "08JAL152055/12FMDA17",
        "styleUrl": "#m_ylw-pushpin",
        "source_layer": "REPDA Descarga",
        "source_document": "REPDA.csv"
      },
      "geometry": {
        "type": "Point",
        "coordinates": [
          -103.50063888888889,
          20.465999999999998
        ]
      }
    },
    {
      "type": "Feature",
      "properties": {
        "Name": "JAL153329",
        "styleUrl": "#m_ylw-pushpin",
        "source_layer": "REPDA Descarga",
        "source_document": "REPDA.csv"
      },
      "geometry": {
        "type": "Point",
        "coordinates": [
          -103.57433333333333,
          20.497555000000002
        ]
      }
    },
    {
      "type": "Feature",
      "properties": {
        "Name": "08JAL135301/12IMOC09",
        "styleUrl": "#m_ylw-pushpin",
        "source_layer": "REPDA Descarga",
        "source_document": "REPDA.csv"
      },
      "geometry": {
        "type": "Point",
        "coordinates": [
          -103.36141666666666,
          20.528972222222222
        ]
      }
    },
    {
      "type": "Feature",
      "properties": {
        "Name": "08JAL137273/12GMOC10",
        "styleUrl": "#m_ylw-pushpin",
        "source_layer": "REPDA Descarga",
        "source_document": "REPDA.csv"
      },
      "geometry": {
        "type": "Point",
        "coordinates": [
          -103.55638888888889,
          20.47611111111111
        ]
      }
    },
    {
      "type": "Feature",
      "properties": {
        "Name": "08JAL138209/12EMOC11",
        "styleUrl": "#m_ylw-pushpin",
        "source_layer": "REPDA Descarga",
        "source_document": "REPDA.csv"
      },
      "geometry": {
        "type": "Point",
        "coordinates": [
          -103.48305555555555,
          20.571944444444444
        ]
      }
    },
    {
      "type": "Feature",
      "properties": {
        "Name": "08JAL138209/12EMOC11",
        "styleUrl": "#m_ylw-pushpin",
        "source_layer": "REPDA Descarga",
        "source_document": "REPDA.csv"
      },
      "geometry": {
        "type": "Point",
        "coordinates": [
          -103.49083333333333,
          20.57138888888889
        ]
      }
    },
    {
      "type": "Feature",
      "properties": {
        "Name": "08JAL138203/12FMOC10",
        "styleUrl": "#m_ylw-pushpin",
        "source_layer": "REPDA Descarga",
        "source_document": "REPDA.csv"
      },
      "geometry": {
        "type": "Point",
        "coordinates": [
          -103.39055555555557,
          20.444166666666668
        ]
      }
    },
    {
      "type": "Feature",
      "properties": {
        "Name": "08JAL138204/12EMOC10",
        "styleUrl": "#m_ylw-pushpin",
        "source_layer": "REPDA Descarga",
        "source_document": "REPDA.csv"
      },
      "geometry": {
        "type": "Point",
        "coordinates": [
          -103.37083333333332,
          20.552500000000002
        ]
      }
    },
    {
      "type": "Feature",
      "properties": {
        "Name": "08JAL134077/12EMDA18",
        "styleUrl": "#m_ylw-pushpin",
        "source_layer": "REPDA Descarga",
        "source_document": "REPDA.csv"
      },
      "geometry": {
        "type": "Point",
        "coordinates": [
          -103.27333333333333,
          20.485555555555557
        ]
      }
    },
    {
      "type": "Feature",
      "properties": {
        "Name": "08JAL137040/12EMOC10",
        "styleUrl": "#m_ylw-pushpin",
        "source_layer": "REPDA Descarga",
        "source_document": "REPDA.csv"
      },
      "geometry": {
        "type": "Point",
        "coordinates": [
          -103.40777777777778,
          20.45583333333333
        ]
      }
    },
    {
      "type": "Feature",
      "properties": {
        "Name": "08JAL136474/12EMOC10",
        "styleUrl": "#m_ylw-pushpin",
        "source_layer": "REPDA Descarga",
        "source_document": "REPDA.csv"
      },
      "geometry": {
        "type": "Point",
        "coordinates": [
          -103.4263888888889,
          20.84722222222222
        ]
      }
    },
    {
      "type": "Feature",
      "properties": {
        "Name": "08JAL136470/12EMOC10",
        "styleUrl": "#m_ylw-pushpin",
        "source_layer": "REPDA Descarga",
        "source_document": "REPDA.csv"
      },
      "geometry": {
        "type": "Point",
        "coordinates": [
          -103.26583333333333,
          20.474166666666665
        ]
      }
    },
    {
      "type": "Feature",
      "properties": {
        "Name": "08JAL136475/12EMOC10",
        "styleUrl": "#m_ylw-pushpin",
        "source_layer": "REPDA Descarga",
        "source_document": "REPDA.csv"
      },
      "geometry": {
        "type": "Point",
        "coordinates": [
          -103.25805555555556,
          20.470555555555553
        ]
      }
    },
    {
      "type": "Feature",
      "properties": {
        "Name": "08JAL136475/12EMOC10",
        "styleUrl": "#m_ylw-pushpin",
        "source_layer": "REPDA Descarga",
        "source_document": "REPDA.csv"
      },
      "geometry": {
        "type": "Point",
        "coordinates": [
          -103.25611111111111,
          20.47138888888889
        ]
      }
    },
    {
      "type": "Feature",
      "properties": {
        "Name": "08JAL134727/12EMOC09",
        "styleUrl": "#m_ylw-pushpin",
        "source_layer": "REPDA Descarga",
        "source_document": "REPDA.csv"
      },
      "geometry": {
        "type": "Point",
        "coordinates": [
          -103.42055555555557,
          20.500916666666665
        ]
      }
    },
    {
      "type": "Feature",
      "properties": {
        "Name": "08JAL136048/12FMDA19",
        "styleUrl": "#m_ylw-pushpin",
        "source_layer": "REPDA Descarga",
        "source_document": "REPDA.csv"
      },
      "geometry": {
        "type": "Point",
        "coordinates": [
          -103.33666666666666,
          20.435
        ]
      }
    },
    {
      "type": "Feature",
      "properties": {
        "Name": "08JAL136048/12FMDA19",
        "styleUrl": "#m_ylw-pushpin",
        "source_layer": "REPDA Descarga",
        "source_document": "REPDA.csv"
      },
      "geometry": {
        "type": "Point",
        "coordinates": [
          -103.345,
          20.436944444444446
        ]
      }
    },
    {
      "type": "Feature",
      "properties": {
        "Name": "08JAL136048/12FMDA19",
        "styleUrl": "#m_ylw-pushpin",
        "source_layer": "REPDA Descarga",
        "source_document": "REPDA.csv"
      },
      "geometry": {
        "type": "Point",
        "coordinates": [
          -103.36,
          20.438055555555557
        ]
      }
    },
    {
      "type": "Feature",
      "properties": {
        "Name": "08JAL136183/12EMOC09",
        "styleUrl": "#m_ylw-pushpin",
        "source_layer": "REPDA Descarga",
        "source_document": "REPDA.csv"
      },
      "geometry": {
        "type": "Point",
        "coordinates": [
          -103.30722222222222,
          20.441388888888888
        ]
      }
    },
    {
      "type": "Feature",
      "properties": {
        "Name": "08JAL136183/12EMOC09",
        "styleUrl": "#m_ylw-pushpin",
        "source_layer": "REPDA Descarga",
        "source_document": "REPDA.csv"
      },
      "geometry": {
        "type": "Point",
        "coordinates": [
          -103.30444444444444,
          20.445
        ]
      }
    },
    {
      "type": "Feature",
      "properties": {
        "Name": "08JAL136183/12EMOC09",
        "styleUrl": "#m_ylw-pushpin",
        "source_layer": "REPDA Descarga",
        "source_document": "REPDA.csv"
      },
      "geometry": {
        "type": "Point",
        "coordinates": [
          -103.30277777777778,
          20.449166666666667
        ]
      }
    },
    {
      "type": "Feature",
      "properties": {
        "Name": "08JAL136183/12EMOC09",
        "styleUrl": "#m_ylw-pushpin",
        "source_layer": "REPDA Descarga",
        "source_document": "REPDA.csv"
      },
      "geometry": {
        "type": "Point",
        "coordinates": [
          -103.30277777777778,
          20.454722222222223
        ]
      }
    },
    {
      "type": "Feature",
      "properties": {
        "Name": "JAL136055",
        "styleUrl": "#m_ylw-pushpin",
        "source_layer": "REPDA Descarga",
        "source_document": "REPDA.csv"
      },
      "geometry": {
        "type": "Point",
        "coordinates": [
          -103.50055555555555,
          20.470554999999997
        ]
      }
    },
    {
      "type": "Feature",
      "properties": {
        "Name": "JAL136055",
        "styleUrl": "#m_ylw-pushpin",
        "source_layer": "REPDA Descarga",
        "source_document": "REPDA.csv"
      },
      "geometry": {
        "type": "Point",
        "coordinates": [
          -103.50583361111111,
          20.468055
        ]
      }
    },
    {
      "type": "Feature",
      "properties": {
        "Name": "JAL136080",
        "styleUrl": "#m_ylw-pushpin",
        "source_layer": "REPDA Descarga",
        "source_document": "REPDA.csv"
      },
      "geometry": {
        "type": "Point",
        "coordinates": [
          -103.24558333333333,
          20.437613055555556
        ]
      }
    },
    {
      "type": "Feature",
      "properties": {
        "Name": "JAL136080",
        "styleUrl": "#m_ylw-pushpin",
        "source_layer": "REPDA Descarga",
        "source_document": "REPDA.csv"
      },
      "geometry": {
        "type": "Point",
        "coordinates": [
          -103.24638916666667,
          20.436251388888888
        ]
      }
    },
    {
      "type": "Feature",
      "properties": {
        "Name": "08JAL135715/12FSOC26",
        "styleUrl": "#m_ylw-pushpin",
        "source_layer": "REPDA Descarga",
        "source_document": "REPDA.csv"
      },
      "geometry": {
        "type": "Point",
        "coordinates": [
          -103.33305555555555,
          20.435
        ]
      }
    },
    {
      "type": "Feature",
      "properties": {
        "Name": "08JAL133522/12EMOC08",
        "styleUrl": "#m_ylw-pushpin",
        "source_layer": "REPDA Descarga",
        "source_document": "REPDA.csv"
      },
      "geometry": {
        "type": "Point",
        "coordinates": [
          -103.48472222222222,
          20.514722222222222
        ]
      }
    },
    {
      "type": "Feature",
      "properties": {
        "Name": "08JAL133522/12EMOC08",
        "styleUrl": "#m_ylw-pushpin",
        "source_layer": "REPDA Descarga",
        "source_document": "REPDA.csv"
      },
      "geometry": {
        "type": "Point",
        "coordinates": [
          -103.48416666666667,
          20.514444444444443
        ]
      }
    },
    {
      "type": "Feature",
      "properties": {
        "Name": "08JAL133522/12EMOC08",
        "styleUrl": "#m_ylw-pushpin",
        "source_layer": "REPDA Descarga",
        "source_document": "REPDA.csv"
      },
      "geometry": {
        "type": "Point",
        "coordinates": [
          -103.48361111111112,
          20.514722222222222
        ]
      }
    },
    {
      "type": "Feature",
      "properties": {
        "Name": "08JAL133869/12GPOC09",
        "styleUrl": "#m_ylw-pushpin",
        "source_layer": "REPDA Descarga",
        "source_document": "REPDA.csv"
      },
      "geometry": {
        "type": "Point",
        "coordinates": [
          -103.49861111111112,
          20.441666666666666
        ]
      }
    },
    {
      "type": "Feature",
      "properties": {
        "Name": "08JAL130680/12EMDA16",
        "styleUrl": "#m_ylw-pushpin",
        "source_layer": "REPDA Descarga",
        "source_document": "REPDA.csv"
      },
      "geometry": {
        "type": "Point",
        "coordinates": [
          -103.49694444444445,
          20.480555555555554
        ]
      }
    },
    {
      "type": "Feature",
      "properties": {
        "Name": "08JAL132202/12EADA17",
        "styleUrl": "#m_ylw-pushpin",
        "source_layer": "REPDA Descarga",
        "source_document": "REPDA.csv"
      },
      "geometry": {
        "type": "Point",
        "coordinates": [
          -103.4863888888889,
          20.51638888888889
        ]
      }
    },
    {
      "type": "Feature",
      "properties": {
        "Name": "08JAL132337/12IRDA18",
        "styleUrl": "#m_ylw-pushpin",
        "source_layer": "REPDA Descarga",
        "source_document": "REPDA.csv"
      },
      "geometry": {
        "type": "Point",
        "coordinates": [
          -103.2761111111111,
          20.503333333333334
        ]
      }
    },
    {
      "type": "Feature",
      "properties": {
        "Name": "08JAL132337/12IRDA18",
        "styleUrl": "#m_ylw-pushpin",
        "source_layer": "REPDA Descarga",
        "source_document": "REPDA.csv"
      },
      "geometry": {
        "type": "Point",
        "coordinates": [
          -103.27666666666667,
          20.501666666666665
        ]
      }
    },
    {
      "type": "Feature",
      "properties": {
        "Name": "08JAL132337/12IRDA18",
        "styleUrl": "#m_ylw-pushpin",
        "source_layer": "REPDA Descarga",
        "source_document": "REPDA.csv"
      },
      "geometry": {
        "type": "Point",
        "coordinates": [
          -103.26888888888888,
          20.5075
        ]
      }
    },
    {
      "type": "Feature",
      "properties": {
        "Name": "08JAL129954/12FMOC08",
        "styleUrl": "#m_ylw-pushpin",
        "source_layer": "REPDA Descarga",
        "source_document": "REPDA.csv"
      },
      "geometry": {
        "type": "Point",
        "coordinates": [
          -103.45333333333333,
          20.552777777777777
        ]
      }
    },
    {
      "type": "Feature",
      "properties": {
        "Name": "JAL130598",
        "styleUrl": "#m_ylw-pushpin",
        "source_layer": "REPDA Descarga",
        "source_document": "REPDA.csv"
      },
      "geometry": {
        "type": "Point",
        "coordinates": [
          -103.29833472222222,
          20.53083611111111
        ]
      }
    },
    {
      "type": "Feature",
      "properties": {
        "Name": "JAL130598",
        "styleUrl": "#m_ylw-pushpin",
        "source_layer": "REPDA Descarga",
        "source_document": "REPDA.csv"
      },
      "geometry": {
        "type": "Point",
        "coordinates": [
          -103.29777805555555,
          20.528058055555555
        ]
      }
    },
    {
      "type": "Feature",
      "properties": {
        "Name": "JAL130598",
        "styleUrl": "#m_ylw-pushpin",
        "source_layer": "REPDA Descarga",
        "source_document": "REPDA.csv"
      },
      "geometry": {
        "type": "Point",
        "coordinates": [
          -103.31104194444444,
          20.52669722222222
        ]
      }
    },
    {
      "type": "Feature",
      "properties": {
        "Name": "JAL130598",
        "styleUrl": "#m_ylw-pushpin",
        "source_layer": "REPDA Descarga",
        "source_document": "REPDA.csv"
      },
      "geometry": {
        "type": "Point",
        "coordinates": [
          -103.3065475,
          20.52438611111111
        ]
      }
    },
    {
      "type": "Feature",
      "properties": {
        "Name": "08JAL129971/12EMDA17",
        "styleUrl": "#m_ylw-pushpin",
        "source_layer": "REPDA Descarga",
        "source_document": "REPDA.csv"
      },
      "geometry": {
        "type": "Point",
        "coordinates": [
          -103.34222222222222,
          20.429444444444446
        ]
      }
    },
    {
      "type": "Feature",
      "properties": {
        "Name": "08JAL129735/12HMGR06",
        "styleUrl": "#m_ylw-pushpin",
        "source_layer": "REPDA Descarga",
        "source_document": "REPDA.csv"
      },
      "geometry": {
        "type": "Point",
        "coordinates": [
          -103.46388888888889,
          20.541666666666668
        ]
      }
    },
    {
      "type": "Feature",
      "properties": {
        "Name": "08JAL129735/12HMGR06",
        "styleUrl": "#m_ylw-pushpin",
        "source_layer": "REPDA Descarga",
        "source_document": "REPDA.csv"
      },
      "geometry": {
        "type": "Point",
        "coordinates": [
          -103.47500000000001,
          20.565555555555555
        ]
      }
    },
    {
      "type": "Feature",
      "properties": {
        "Name": "08JAL129402/12EMGR06",
        "styleUrl": "#m_ylw-pushpin",
        "source_layer": "REPDA Descarga",
        "source_document": "REPDA.csv"
      },
      "geometry": {
        "type": "Point",
        "coordinates": [
          -103.48138888888889,
          20.490833333333335
        ]
      }
    },
    {
      "type": "Feature",
      "properties": {
        "Name": "08JAL128118/12IMGR06",
        "styleUrl": "#m_ylw-pushpin",
        "source_layer": "REPDA Descarga",
        "source_document": "REPDA.csv"
      },
      "geometry": {
        "type": "Point",
        "coordinates": [
          -103.37833333333333,
          20.508333333333333
        ]
      }
    },
    {
      "type": "Feature",
      "properties": {
        "Name": "08JAL129333/12IMGR06",
        "styleUrl": "#m_ylw-pushpin",
        "source_layer": "REPDA Descarga",
        "source_document": "REPDA.csv"
      },
      "geometry": {
        "type": "Point",
        "coordinates": [
          -103.37222222222222,
          20.506944444444443
        ]
      }
    },
    {
      "type": "Feature",
      "properties": {
        "Name": "08JAL129272/12CMGR06",
        "styleUrl": "#m_ylw-pushpin",
        "source_layer": "REPDA Descarga",
        "source_document": "REPDA.csv"
      },
      "geometry": {
        "type": "Point",
        "coordinates": [
          -103.36638888888888,
          20.508055555555554
        ]
      }
    },
    {
      "type": "Feature",
      "properties": {
        "Name": "08JAL128994/12EMGR06",
        "styleUrl": "#m_ylw-pushpin",
        "source_layer": "REPDA Descarga",
        "source_document": "REPDA.csv"
      },
      "geometry": {
        "type": "Point",
        "coordinates": [
          -103.41833333333334,
          20.467777777777776
        ]
      }
    },
    {
      "type": "Feature",
      "properties": {
        "Name": "08JAL128942/12IMGR06",
        "styleUrl": "#m_ylw-pushpin",
        "source_layer": "REPDA Descarga",
        "source_document": "REPDA.csv"
      },
      "geometry": {
        "type": "Point",
        "coordinates": [
          -103.15694444444445,
          20.491111111111113
        ]
      }
    },
    {
      "type": "Feature",
      "properties": {
        "Name": "08JAL128942/12IMGR06",
        "styleUrl": "#m_ylw-pushpin",
        "source_layer": "REPDA Descarga",
        "source_document": "REPDA.csv"
      },
      "geometry": {
        "type": "Point",
        "coordinates": [
          -103.49055555555556,
          20.49138888888889
        ]
      }
    },
    {
      "type": "Feature",
      "properties": {
        "Name": "JAL125681",
        "styleUrl": "#m_ylw-pushpin",
        "source_layer": "REPDA Descarga",
        "source_document": "REPDA.csv"
      },
      "geometry": {
        "type": "Point",
        "coordinates": [
          -103.32472277777778,
          20.784724444444446
        ]
      }
    },
    {
      "type": "Feature",
      "properties": {
        "Name": "JAL125681",
        "styleUrl": "#m_ylw-pushpin",
        "source_layer": "REPDA Descarga",
        "source_document": "REPDA.csv"
      },
      "geometry": {
        "type": "Point",
        "coordinates": [
          -103.25394527777777,
          20.511501666666668
        ]
      }
    },
    {
      "type": "Feature",
      "properties": {
        "Name": "JAL125681",
        "styleUrl": "#m_ylw-pushpin",
        "source_layer": "REPDA Descarga",
        "source_document": "REPDA.csv"
      },
      "geometry": {
        "type": "Point",
        "coordinates": [
          -103.43052888888889,
          20.77311333333333
        ]
      }
    },
    {
      "type": "Feature",
      "properties": {
        "Name": "JAL125681",
        "styleUrl": "#m_ylw-pushpin",
        "source_layer": "REPDA Descarga",
        "source_document": "REPDA.csv"
      },
      "geometry": {
        "type": "Point",
        "coordinates": [
          -103.33327833333333,
          20.769613333333332
        ]
      }
    },
    {
      "type": "Feature",
      "properties": {
        "Name": "JAL125681",
        "styleUrl": "#m_ylw-pushpin",
        "source_layer": "REPDA Descarga",
        "source_document": "REPDA.csv"
      },
      "geometry": {
        "type": "Point",
        "coordinates": [
          -103.25198916666666,
          20.4643425
        ]
      }
    },
    {
      "type": "Feature",
      "properties": {
        "Name": "08JAL128116/12IAGR05",
        "styleUrl": "#m_ylw-pushpin",
        "source_layer": "REPDA Descarga",
        "source_document": "REPDA.csv"
      },
      "geometry": {
        "type": "Point",
        "coordinates": [
          -103.36333333333333,
          20.513055555555557
        ]
      }
    },
    {
      "type": "Feature",
      "properties": {
        "Name": "08JAL128117/12IAGR05",
        "styleUrl": "#m_ylw-pushpin",
        "source_layer": "REPDA Descarga",
        "source_document": "REPDA.csv"
      },
      "geometry": {
        "type": "Point",
        "coordinates": [
          -103.37833333333333,
          20.513055555555557
        ]
      }
    },
    {
      "type": "Feature",
      "properties": {
        "Name": "JAL128013",
        "styleUrl": "#m_ylw-pushpin",
        "source_layer": "REPDA Descarga",
        "source_document": "REPDA.csv"
      },
      "geometry": {
        "type": "Point",
        "coordinates": [
          -103.44305583333333,
          20.581669722222223
        ]
      }
    },
    {
      "type": "Feature",
      "properties": {
        "Name": "08JAL127904/12IMGR05",
        "styleUrl": "#m_ylw-pushpin",
        "source_layer": "REPDA Descarga",
        "source_document": "REPDA.csv"
      },
      "geometry": {
        "type": "Point",
        "coordinates": [
          -103.38277777777778,
          20.5125
        ]
      }
    },
    {
      "type": "Feature",
      "properties": {
        "Name": "08JAL124064/12FMGR01",
        "styleUrl": "#m_ylw-pushpin",
        "source_layer": "REPDA Descarga",
        "source_document": "REPDA.csv"
      },
      "geometry": {
        "type": "Point",
        "coordinates": [
          -103.22777777777777,
          20.467499999999998
        ]
      }
    },
    {
      "type": "Feature",
      "properties": {
        "Name": "08JAL113301/12FPOC12",
        "styleUrl": "#m_ylw-pushpin",
        "source_layer": "REPDA Descarga",
        "source_document": "REPDA.csv"
      },
      "geometry": {
        "type": "Point",
        "coordinates": [
          -103.57638888888889,
          20.432222222222222
        ]
      }
    },
    {
      "type": "Feature",
      "properties": {
        "Name": "08JAL113510/12EMGR99",
        "styleUrl": "#m_ylw-pushpin",
        "source_layer": "REPDA Descarga",
        "source_document": "REPDA.csv"
      },
      "geometry": {
        "type": "Point",
        "coordinates": [
          -103.45833333333334,
          20.558333333333334
        ]
      }
    },
    {
      "type": "Feature",
      "properties": {
        "Name": "08JAL113510/12EMGR99",
        "styleUrl": "#m_ylw-pushpin",
        "source_layer": "REPDA Descarga",
        "source_document": "REPDA.csv"
      },
      "geometry": {
        "type": "Point",
        "coordinates": [
          -103.45847222222223,
          20.558333333333334
        ]
      }
    },
    {
      "type": "Feature",
      "properties": {
        "Name": "08JAL108197/12FPGR98",
        "styleUrl": "#m_ylw-pushpin",
        "source_layer": "REPDA Descarga",
        "source_document": "REPDA.csv"
      },
      "geometry": {
        "type": "Point",
        "coordinates": [
          -103.25944444444444,
          20.490277777777777
        ]
      }
    },
    {
      "type": "Feature",
      "properties": {
        "Name": "08JAL104409/12EMGE97",
        "styleUrl": "#m_ylw-pushpin",
        "source_layer": "REPDA Descarga",
        "source_document": "REPDA.csv"
      },
      "geometry": {
        "type": "Point",
        "coordinates": [
          -103.45333333333333,
          20.573055555555555
        ]
      }
    },
    {
      "type": "Feature",
      "properties": {
        "Name": "08JAL104409/12EMGE97",
        "styleUrl": "#m_ylw-pushpin",
        "source_layer": "REPDA Descarga",
        "source_document": "REPDA.csv"
      },
      "geometry": {
        "type": "Point",
        "coordinates": [
          -103.45333333333333,
          20.573055555555555
        ]
      }
    },
    {
      "type": "Feature",
      "properties": {
        "Name": "08JAL106636/12FMOC26",
        "styleUrl": "#m_ylw-pushpin",
        "source_layer": "REPDA Descarga",
        "source_document": "REPDA.csv"
      },
      "geometry": {
        "type": "Point",
        "coordinates": [
          -103.48888916666667,
          20.42500027777778
        ]
      }
    },
    {
      "type": "Feature",
      "properties": {
        "Name": "08JAL105323/12FMGE97",
        "styleUrl": "#m_ylw-pushpin",
        "source_layer": "REPDA Descarga",
        "source_document": "REPDA.csv"
      },
      "geometry": {
        "type": "Point",
        "coordinates": [
          -103.36388888888888,
          20.56527777777778
        ]
      }
    },
    {
      "type": "Feature",
      "properties": {
        "Name": "JAL103644",
        "styleUrl": "#m_ylw-pushpin",
        "source_layer": "REPDA Descarga",
        "source_document": "REPDA.csv"
      },
      "geometry": {
        "type": "Point",
        "coordinates": [
          -103.42888972222222,
          20.428890833333334
        ]
      }
    },
    {
      "type": "Feature",
      "properties": {
        "Name": "4JAL101599/12CMGE95",
        "styleUrl": "#m_ylw-pushpin",
        "source_layer": "REPDA Descarga",
        "source_document": "REPDA.csv"
      },
      "geometry": {
        "type": "Point",
        "coordinates": [
          -103.47083333333333,
          20.56722222222222
        ]
      }
    },
    {
      "type": "Feature",
      "properties": {
        "Name": "4JAL101599/12CMGE95",
        "styleUrl": "#m_ylw-pushpin",
        "source_layer": "REPDA Descarga",
        "source_document": "REPDA.csv"
      },
      "geometry": {
        "type": "Point",
        "coordinates": [
          -103.45277777777778,
          20.55777777777778
        ]
      }
    }
  ]
}